<?xml version="1.0" encoding="UTF-8"?>
<kml xmlns="http://www.opengis.net/kml/2.2">
  <Document>
    <name>Морской маршрут Мурманск-Архангельск</name>
    <description>Оптимальный маршрут через Баренцево и Белое моря</description>
    <Style id="routeStyle">
      <LineStyle>
        <color>ff0066ff</color>
        <width>4</width>
      </LineStyle>
    </Style>
    <Placemark>
      <name>Маршрут корабля</name>
      <styleUrl>#routeStyle</styleUrl>
      <LineString>
        <extrude>0</extrude>
        <tessellate>1</tessellate>
        <altitudeMode>clampToGround</altitudeMode>
        <coordinates>
          33.03085904920767,69.04704704704704,0
          33.07422852376981,69.06306306306307,0
          33.117597998331945,69.07907907907908,0
          33.16096747289408,69.07907907907908,0
          33.20433694745621,69.07907907907908,0
          33.24770642201835,69.09509509509509,0
          33.29107589658048,69.09509509509509,0
          33.33444537114262,69.11111111111111,0
          33.377814845704755,69.12712712712712,0
          33.42118432026689,69.14314314314315,0
          33.46455379482902,69.15915915915916,0
          33.507923269391156,69.17517517517517,0
          33.5512927439533,69.1911911911912,0
          33.5512927439533,69.2072072072072,0
          33.5512927439533,69.22322322322323,0
          33.5512927439533,69.23923923923924,0
          33.5512927439533,69.25525525525525,0
          33.5512927439533,69.27127127127127,0
          33.5512927439533,69.28728728728728,0
          33.5512927439533,69.30330330330331,0
          33.5512927439533,69.31931931931932,0
          33.59466221851543,69.33533533533533,0
          33.638031693077565,69.33533533533533,0
          33.6814011676397,69.33533533533533,0
          33.72477064220183,69.35135135135135,0
          33.76814011676397,69.33533533533533,0
          33.81150959132611,69.33533533533533,0
          33.85487906588824,69.35135135135135,0
          33.898248540450375,69.35135135135135,0
          33.94161801501251,69.36736736736736,0
          33.98498748957465,69.38338338338339,0
          34.02835696413678,69.3993993993994,0
          34.07172643869892,69.3993993993994,0
          34.11509591326105,69.41541541541541,0
          34.158465387823185,69.41541541541541,0
          34.20183486238532,69.41541541541541,0
          34.24520433694746,69.3993993993994,0
          34.28857381150959,69.3993993993994,0
          34.33194328607173,69.38338338338339,0
          34.37531276063386,69.36736736736736,0
          34.418682235195995,69.35135135135135,0
          34.46205170975813,69.33533533533533,0
          34.50542118432027,69.31931931931932,0
          34.5487906588824,69.30330330330331,0
          34.59216013344454,69.28728728728728,0
          34.63552960800667,69.27127127127127,0
          34.678899082568805,69.25525525525525,0
          34.722268557130946,69.25525525525525,0
          34.76563803169308,69.25525525525525,0
          34.80900750625521,69.25525525525525,0
          34.85237698081735,69.23923923923924,0
          34.89574645537948,69.23923923923924,0
          34.93911592994162,69.23923923923924,0
          34.982485404503755,69.22322322322323,0
          35.02585487906589,69.23923923923924,0
          35.06922435362802,69.25525525525525,0
          35.11259382819016,69.27127127127127,0
          35.1559633027523,69.28728728728728,0
          35.19933277731443,69.28728728728728,0
          35.242702251876565,69.28728728728728,0
          35.2860717264387,69.28728728728728,0
          35.32944120100083,69.28728728728728,0
          35.37281067556297,69.27127127127127,0
          35.4161801501251,69.27127127127127,0
          35.45954962468724,69.25525525525525,0
          35.502919099249375,69.25525525525525,0
          35.54628857381151,69.25525525525525,0
          35.58965804837364,69.23923923923924,0
          35.63302752293578,69.23923923923924,0
          35.67639699749792,69.22322322322323,0
          35.71976647206005,69.22322322322323,0
          35.763135946622185,69.2072072072072,0
          35.80650542118432,69.2072072072072,0
          35.84987489574645,69.2072072072072,0
          35.893244370308594,69.1911911911912,0
          35.93661384487073,69.1911911911912,0
          35.97998331943286,69.17517517517517,0
          36.023352793994995,69.15915915915916,0
          36.06672226855713,69.14314314314315,0
          36.11009174311927,69.14314314314315,0
          36.153461217681404,69.12712712712712,0
          36.19683069224354,69.12712712712712,0
          36.24020016680567,69.12712712712712,0
          36.283569641367805,69.11111111111111,0
          36.326939115929946,69.09509509509509,0
          36.37030859049207,69.07907907907908,0
          36.413678065054214,69.06306306306307,0
          36.45704753961635,69.04704704704704,0
          36.50041701417848,69.04704704704704,0
          36.543786488740615,69.03103103103103,0
          36.58715596330275,69.01501501501501,0
          36.63052543786489,68.998998998999,0
          36.67389491242702,68.998998998999,0
          36.71726438698916,68.98298298298299,0
          36.76063386155129,68.96696696696696,0
          36.804003336113425,68.95095095095095,0
          36.847372810675566,68.95095095095095,0
          36.8907422852377,68.93493493493493,0
          36.93411175979983,68.91891891891892,0
          36.97748123436197,68.91891891891892,0
          37.0208507089241,68.90290290290291,0
          37.06422018348624,68.88688688688688,0
          37.107589658048376,68.87087087087087,0
          37.15095913261051,68.85485485485485,0
          37.19432860717264,68.85485485485485,0
          37.23769808173478,68.83883883883884,0
          37.28106755629692,68.82282282282283,0
          37.32443703085905,68.8068068068068,0
          37.367806505421186,68.7907907907908,0
          37.41117597998332,68.77477477477477,0
          37.45454545454545,68.75875875875876,0
          37.497914929107594,68.74274274274275,0
          37.54128440366972,68.74274274274275,0
          37.58465387823186,68.74274274274275,0
          37.628023352793996,68.72672672672672,0
          37.67139282735613,68.72672672672672,0
          37.71476230191826,68.71071071071071,0
          37.7581317764804,68.69469469469469,0
          37.80150125104254,68.67867867867868,0
          37.84487072560467,68.66266266266267,0
          37.888240200166805,68.64664664664664,0
          37.93160967472894,68.63063063063063,0
          37.97497914929107,68.61461461461461,0
          38.018348623853214,68.5985985985986,0
          38.06171809841535,68.58258258258259,0
          38.10508757297748,68.56656656656656,0
          38.148457047539615,68.55055055055055,0
          38.19182652210175,68.53453453453453,0
          38.23519599666389,68.51851851851852,0
          38.278565471226024,68.50250250250251,0
          38.32193494578816,68.48648648648648,0
          38.36530442035029,68.47047047047047,0
          38.408673894912425,68.45445445445445,0
          38.452043369474566,68.43843843843844,0
          38.4954128440367,68.42242242242243,0
          38.538782318598834,68.4064064064064,0
          38.58215179316097,68.3903903903904,0
          38.6255212677231,68.3903903903904,0
          38.66889074228524,68.3903903903904,0
          38.71226021684737,68.37437437437437,0
          38.75562969140951,68.35835835835836,0
          38.798999165971644,68.34234234234235,0
          38.84236864053378,68.32632632632632,0
          38.88573811509591,68.32632632632632,0
          38.929107589658045,68.31031031031031,0
          38.972477064220186,68.29429429429429,0
          39.01584653878232,68.27827827827828,0
          39.059216013344454,68.26226226226227,0
          39.10258548790659,68.24624624624624,0
          39.14595496246872,68.23023023023023,0
          39.18932443703086,68.21421421421421,0
          39.232693911592996,68.1981981981982,0
          39.27606338615513,68.18218218218219,0
          39.319432860717264,68.18218218218219,0
          39.3628023352794,68.18218218218219,0
          39.40617180984154,68.18218218218219,0
          39.44954128440367,68.18218218218219,0
          39.492910758965806,68.18218218218219,0
          39.53628023352794,68.18218218218219,0
          39.57964970809007,68.18218218218219,0
          39.623019182652214,68.18218218218219,0
          39.66638865721435,68.18218218218219,0
          39.70975813177648,68.18218218218219,0
          39.753127606338616,68.18218218218219,0
          39.79649708090075,68.16616616616616,0
          39.83986655546289,68.15015015015015,0
          39.88323603002502,68.13413413413413,0
          39.92660550458716,68.11811811811812,0
          39.92660550458716,68.10210210210211,0
          39.96997497914929,68.08608608608608,0
          39.96997497914929,68.07007007007007,0
          39.96997497914929,68.05405405405405,0
          40.013344453711426,68.03803803803804,0
          40.05671392827356,68.02202202202203,0
          40.10008340283569,68.006006006006,0
          40.10008340283569,67.98998998999,0
          40.143452877397834,67.97397397397397,0
          40.18682235195997,67.95795795795796,0
          40.2301918265221,67.94194194194195,0
          40.273561301084236,67.92592592592592,0
          40.31693077564637,67.90990990990991,0
          40.36030025020851,67.90990990990991,0
          40.403669724770644,67.89389389389389,0
          40.44703919933278,67.87787787787788,0
          40.44703919933278,67.86186186186187,0
          40.403669724770644,67.84584584584584,0
          40.36030025020851,67.82982982982983,0
          40.403669724770644,67.81381381381381,0
          40.44703919933278,67.7977977977978,0
          40.49040867389491,67.7977977977978,0
          40.533778148457046,67.7977977977978,0
          40.57714762301919,67.81381381381381,0
          40.62051709758132,67.81381381381381,0
          40.663886572143454,67.81381381381381,0
          40.70725604670559,67.7977977977978,0
          40.70725604670559,67.78178178178179,0
          40.75062552126772,67.76576576576576,0
          40.79399499582986,67.74974974974975,0
          40.837364470392,67.74974974974975,0
          40.88073394495413,67.74974974974975,0
          40.924103419516264,67.74974974974975,0
          40.9674728940784,67.73373373373373,0
          41.01084236864053,67.71771771771772,0
          41.01084236864053,67.70170170170171,0
          41.054211843202665,67.68568568568568,0
          41.054211843202665,67.66966966966967,0
          41.097581317764806,67.65365365365365,0
          41.14095079232694,67.63763763763764,0
          41.184320266889074,67.62162162162163,0
          41.22768974145121,67.6056056056056,0
          41.27105921601334,67.6056056056056,0
          41.31442869057548,67.5895895895896,0
          41.357798165137616,67.57357357357357,0
          41.40116763969975,67.55755755755756,0
          41.444537114261884,67.54154154154155,0
          41.48790658882402,67.52552552552552,0
          41.48790658882402,67.50950950950951,0
          41.48790658882402,67.49349349349349,0
          41.48790658882402,67.47747747747748,0
          41.48790658882402,67.46146146146147,0
          41.48790658882402,67.44544544544544,0
          41.48790658882402,67.42942942942943,0
          41.48790658882402,67.41341341341341,0
          41.53127606338616,67.3973973973974,0
          41.53127606338616,67.38138138138137,0
          41.53127606338616,67.36536536536536,0
          41.53127606338616,67.34934934934935,0
          41.53127606338616,67.33333333333333,0
          41.53127606338616,67.31731731731732,0
          41.53127606338616,67.3013013013013,0
          41.53127606338616,67.28528528528528,0
          41.53127606338616,67.26926926926927,0
          41.57464553794829,67.25325325325325,0
          41.57464553794829,67.23723723723724,0
          41.57464553794829,67.22122122122121,0
          41.57464553794829,67.2052052052052,0
          41.57464553794829,67.1891891891892,0
          41.57464553794829,67.17317317317317,0
          41.57464553794829,67.15715715715716,0
          41.57464553794829,67.14114114114113,0
          41.57464553794829,67.12512512512512,0
          41.618015012510426,67.10910910910911,0
          41.618015012510426,67.09309309309309,0
          41.618015012510426,67.07707707707708,0
          41.618015012510426,67.06106106106105,0
          41.618015012510426,67.04504504504504,0
          41.618015012510426,67.02902902902903,0
          41.618015012510426,67.01301301301301,0
          41.618015012510426,66.996996996997,0
          41.618015012510426,66.98098098098097,0
          41.66138448707256,66.96496496496496,0
          41.66138448707256,66.94894894894895,0
          41.66138448707256,66.93293293293293,0
          41.66138448707256,66.91691691691692,0
          41.66138448707256,66.9009009009009,0
          41.618015012510426,66.88488488488488,0
          41.57464553794829,66.86886886886887,0
          41.57464553794829,66.85285285285285,0
          41.53127606338616,66.83683683683684,0
          41.48790658882402,66.82082082082081,0
          41.48790658882402,66.8048048048048,0
          41.444537114261884,66.78878878878879,0
          41.40116763969975,66.77277277277277,0
          41.357798165137616,66.75675675675676,0
          41.357798165137616,66.74074074074073,0
          41.31442869057548,66.72472472472472,0
          41.27105921601334,66.70870870870871,0
          41.27105921601334,66.69269269269269,0
          41.22768974145121,66.67667667667668,0
          41.184320266889074,66.66066066066065,0
          41.184320266889074,66.64464464464464,0
          41.14095079232694,66.62862862862863,0
          41.097581317764806,66.61261261261261,0
          41.054211843202665,66.5965965965966,0
          41.054211843202665,66.58058058058057,0
          41.01084236864053,66.56456456456456,0
          40.9674728940784,66.54854854854855,0
          40.9674728940784,66.53253253253253,0
          40.924103419516264,66.51651651651652,0
          40.88073394495413,66.5005005005005,0
          40.88073394495413,66.48448448448448,0
          40.837364470392,66.46846846846847,0
          40.79399499582986,66.45245245245245,0
          40.75062552126772,66.43643643643644,0
          40.75062552126772,66.42042042042041,0
          40.70725604670559,66.4044044044044,0
          40.663886572143454,66.38838838838839,0
          40.663886572143454,66.37237237237237,0
          40.62051709758132,66.35635635635636,0
          40.57714762301919,66.34034034034033,0
          40.57714762301919,66.32432432432432,0
          40.533778148457046,66.30830830830831,0
          40.49040867389491,66.29229229229229,0
          40.44703919933278,66.27627627627628,0
          40.403669724770644,66.26026026026025,0
          40.36030025020851,66.24424424424424,0
          40.31693077564637,66.22822822822823,0
          40.273561301084236,66.21221221221221,0
          40.2301918265221,66.1961961961962,0
          40.18682235195997,66.18018018018017,0
          40.143452877397834,66.16416416416416,0
          40.10008340283569,66.14814814814815,0
          40.10008340283569,66.13213213213213,0
          40.10008340283569,66.11611611611612,0
          40.10008340283569,66.1001001001001,0
          40.10008340283569,66.08408408408408,0
          40.10008340283569,66.06806806806807,0
          40.10008340283569,66.05205205205205,0
          40.10008340283569,66.03603603603604,0
          40.10008340283569,66.02002002002001,0
          40.10008340283569,66.004004004004,0
          40.10008340283569,65.98798798798799,0
          40.10008340283569,65.97197197197197,0
          40.10008340283569,65.95595595595596,0
          40.10008340283569,65.93993993993993,0
          40.10008340283569,65.92392392392392,0
          40.05671392827356,65.90790790790791,0
          40.05671392827356,65.89189189189189,0
          40.05671392827356,65.87587587587588,0
          40.05671392827356,65.85985985985985,0
          40.05671392827356,65.84384384384384,0
          40.05671392827356,65.82782782782783,0
          40.05671392827356,65.81181181181181,0
          40.05671392827356,65.7957957957958,0
          40.05671392827356,65.77977977977977,0
          40.05671392827356,65.76376376376376,0
          40.05671392827356,65.74774774774775,0
          40.05671392827356,65.73173173173173,0
          40.05671392827356,65.71571571571572,0
          40.05671392827356,65.69969969969969,0
          40.05671392827356,65.68368368368368,0
          40.013344453711426,65.66766766766767,0
          39.96997497914929,65.66766766766767,0
          39.92660550458716,65.65165165165165,0
          39.88323603002502,65.63563563563564,0
          39.83986655546289,65.61961961961961,0
          39.79649708090075,65.6036036036036,0
          39.79649708090075,65.58758758758759,0
          39.753127606338616,65.57157157157157,0
          39.753127606338616,65.55555555555556,0
          39.70975813177648,65.53953953953953,0
          39.70975813177648,65.52352352352352,0
          39.70975813177648,65.50750750750751,0
          39.70975813177648,65.49149149149149,0
          39.70975813177648,65.47547547547548,0
          39.70975813177648,65.45945945945945,0
          39.66638865721435,65.44344344344344,0
          39.70975813177648,65.42742742742743,0
          39.70975813177648,65.41141141141141,0
          39.70975813177648,65.3953953953954,0
          39.70975813177648,65.37937937937937,0
          39.70975813177648,65.36336336336336,0
          39.70975813177648,65.34734734734735,0
          39.753127606338616,65.33133133133133,0
          39.753127606338616,65.31531531531532,0
          39.79649708090075,65.29929929929929,0
          39.83986655546289,65.28328328328328,0
          39.88323603002502,65.26726726726727,0
          39.88323603002502,65.25125125125125,0
          39.88323603002502,65.23523523523524,0
          39.92660550458716,65.21921921921921,0
          39.92660550458716,65.2032032032032,0
          39.96997497914929,65.18718718718719,0
          39.96997497914929,65.17117117117117,0
          40.013344453711426,65.15515515515516,0
          39.96997497914929,65.17117117117117,0
          39.96997497914929,65.18718718718719,0
          39.92660550458716,65.2032032032032,0
          39.92660550458716,65.21921921921921,0
          39.88323603002502,65.23523523523524,0
          39.88323603002502,65.25125125125125,0
          39.88323603002502,65.26726726726727,0
          39.83986655546289,65.28328328328328,0
          39.79649708090075,65.29929929929929,0
          39.753127606338616,65.31531531531532,0
          39.753127606338616,65.33133133133133,0
          39.70975813177648,65.34734734734735,0
          39.70975813177648,65.36336336336336,0
          39.70975813177648,65.37937937937937,0
          39.70975813177648,65.3953953953954,0
          39.70975813177648,65.41141141141141,0
          39.70975813177648,65.42742742742743,0
          39.66638865721435,65.44344344344344,0
          39.70975813177648,65.45945945945945,0
          39.70975813177648,65.47547547547548,0
          39.70975813177648,65.49149149149149,0
          39.70975813177648,65.50750750750751,0
          39.70975813177648,65.52352352352352,0
          39.70975813177648,65.53953953953953,0
          39.753127606338616,65.55555555555556,0
          39.753127606338616,65.57157157157157,0
          39.79649708090075,65.58758758758759,0
          39.79649708090075,65.6036036036036,0
          39.83986655546289,65.61961961961961,0
          39.88323603002502,65.63563563563564,0
          39.92660550458716,65.65165165165165,0
          39.96997497914929,65.66766766766767,0
          40.013344453711426,65.68368368368368,0
          40.05671392827356,65.69969969969969,0
          40.10008340283569,65.71571571571572,0
          40.143452877397834,65.73173173173173,0
          40.18682235195997,65.74774774774775,0
          40.2301918265221,65.76376376376376,0
          40.273561301084236,65.77977977977977,0
          40.31693077564637,65.7957957957958,0
          40.36030025020851,65.81181181181181,0
          40.403669724770644,65.82782782782783,0
          40.44703919933278,65.84384384384384,0
          40.49040867389491,65.85985985985985,0
          40.533778148457046,65.87587587587588,0
          40.57714762301919,65.89189189189189,0
          40.57714762301919,65.90790790790791,0
          40.62051709758132,65.92392392392392,0
          40.62051709758132,65.93993993993993,0
          40.663886572143454,65.95595595595596,0
          40.70725604670559,65.97197197197197,0
          40.75062552126772,65.98798798798799,0
          40.79399499582986,66.004004004004,0
          40.837364470392,66.02002002002001,0
          40.88073394495413,66.03603603603604,0
          40.924103419516264,66.05205205205205,0
          40.9674728940784,66.06806806806807,0
          41.01084236864053,66.08408408408408,0
          41.054211843202665,66.1001001001001,0
          41.097581317764806,66.11611611611612,0
          41.14095079232694,66.13213213213213,0
          41.184320266889074,66.14814814814815,0
          41.22768974145121,66.16416416416416,0
          41.27105921601334,66.18018018018017,0
          41.31442869057548,66.1961961961962,0
          41.357798165137616,66.21221221221221,0
          41.40116763969975,66.22822822822823,0
          41.444537114261884,66.24424424424424,0
          41.48790658882402,66.26026026026025,0
          41.53127606338616,66.27627627627628,0
          41.57464553794829,66.29229229229229,0
          41.618015012510426,66.30830830830831,0
          41.66138448707256,66.32432432432432,0
          41.704753961634694,66.34034034034033,0
          41.748123436196835,66.35635635635636,0
          41.79149291075897,66.37237237237237,0
          41.8348623853211,66.38838838838839,0
          41.878231859883236,66.4044044044044,0
          41.92160133444537,66.42042042042041,0
          41.96497080900751,66.43643643643644,0
          42.00834028356964,66.45245245245245,0
          42.05170975813178,66.46846846846847,0
          42.09507923269391,66.48448448448448,0
          42.09507923269391,66.5005005005005,0
          42.138448707256046,66.51651651651652,0
          42.18181818181818,66.53253253253253,0
          42.225187656380314,66.54854854854855,0
          42.268557130942455,66.56456456456456,0
          42.31192660550459,66.58058058058057,0
          42.35529608006672,66.5965965965966,0
          42.398665554628856,66.61261261261261,0
          42.398665554628856,66.62862862862863,0
          42.44203502919099,66.64464464464464,0
          42.44203502919099,66.66066066066065,0
          42.48540450375313,66.67667667667668,0
          42.48540450375313,66.69269269269269,0
          42.44203502919099,66.70870870870871,0
          42.44203502919099,66.72472472472472,0
          42.398665554628856,66.74074074074073,0
          42.398665554628856,66.75675675675676,0
          42.44203502919099,66.77277277277277,0
          42.48540450375313,66.78878878878879,0
          42.528773978315265,66.8048048048048,0
          42.5721434528774,66.82082082082081,0
          42.61551292743953,66.83683683683684,0
          42.658882402001666,66.85285285285285,0
          42.70225187656381,66.86886886886887,0
          42.74562135112594,66.88488488488488,0
          42.788990825688074,66.9009009009009,0
          42.83236030025021,66.91691691691692,0
          42.87572977481234,66.93293293293293,0
          42.91909924937448,66.94894894894895,0
          42.96246872393662,66.96496496496496,0
          43.00583819849875,66.98098098098097,0
          43.049207673060884,66.996996996997,0
          43.09257714762302,67.01301301301301,0
          43.09257714762302,67.02902902902903,0
          43.13594662218516,67.04504504504504,0
          43.13594662218516,67.06106106106105,0
          43.179316096747286,67.07707707707708,0
          43.22268557130943,67.09309309309309,0
          43.22268557130943,67.10910910910911,0
          43.26605504587156,67.12512512512512,0
          43.309424520433694,67.14114114114113,0
          43.309424520433694,67.15715715715716,0
          43.309424520433694,67.17317317317317,0
          43.309424520433694,67.1891891891892,0
          43.309424520433694,67.2052052052052,0
          43.309424520433694,67.22122122122121,0
          43.309424520433694,67.23723723723724,0
          43.309424520433694,67.25325325325325,0
          43.309424520433694,67.26926926926927,0
          43.309424520433694,67.28528528528528,0
          43.309424520433694,67.3013013013013,0
          43.309424520433694,67.31731731731732,0
          43.309424520433694,67.33333333333333,0
          43.309424520433694,67.34934934934935,0
          43.309424520433694,67.36536536536536,0
          43.309424520433694,67.38138138138137,0
          43.309424520433694,67.3973973973974,0
          43.309424520433694,67.41341341341341,0
          43.309424520433694,67.42942942942943,0
          43.309424520433694,67.44544544544544,0
          43.309424520433694,67.46146146146147,0
          43.309424520433694,67.47747747747748,0
          43.309424520433694,67.49349349349349,0
          43.309424520433694,67.50950950950951,0
          43.309424520433694,67.52552552552552,0
          43.309424520433694,67.54154154154155,0
          43.309424520433694,67.55755755755756,0
          43.309424520433694,67.57357357357357,0
          43.309424520433694,67.5895895895896,0
          43.26605504587156,67.6056056056056,0
          43.26605504587156,67.62162162162163,0
          43.26605504587156,67.63763763763764,0
          43.26605504587156,67.65365365365365,0
          43.26605504587156,67.66966966966967,0
          43.26605504587156,67.68568568568568,0
          43.26605504587156,67.70170170170171,0
          43.26605504587156,67.71771771771772,0
          43.26605504587156,67.73373373373373,0
          43.26605504587156,67.74974974974975,0
          43.26605504587156,67.76576576576576,0
          43.26605504587156,67.78178178178179,0
          43.26605504587156,67.7977977977978,0
          43.26605504587156,67.81381381381381,0
          43.26605504587156,67.82982982982983,0
          43.26605504587156,67.84584584584584,0
          43.26605504587156,67.86186186186187,0
          43.26605504587156,67.87787787787788,0
          43.26605504587156,67.89389389389389,0
          43.26605504587156,67.90990990990991,0
          43.26605504587156,67.92592592592592,0
          43.26605504587156,67.94194194194195,0
          43.26605504587156,67.95795795795796,0
          43.26605504587156,67.97397397397397,0
          43.26605504587156,67.98998998999,0
          43.26605504587156,68.006006006006,0
          43.26605504587156,68.02202202202203,0
          43.26605504587156,68.03803803803804,0
          43.26605504587156,68.05405405405405,0
          43.26605504587156,68.07007007007007,0
          43.26605504587156,68.08608608608608,0
          43.26605504587156,68.10210210210211,0
          43.26605504587156,68.11811811811812,0
          43.26605504587156,68.13413413413413,0
          43.26605504587156,68.15015015015015,0
          43.26605504587156,68.16616616616616,0
          43.26605504587156,68.18218218218219,0
          43.26605504587156,68.1981981981982,0
          43.26605504587156,68.21421421421421,0
          43.26605504587156,68.23023023023023,0
          43.26605504587156,68.24624624624624,0
          43.26605504587156,68.26226226226227,0
          43.26605504587156,68.27827827827828,0
          43.26605504587156,68.29429429429429,0
          43.26605504587156,68.31031031031031,0
          43.26605504587156,68.32632632632632,0
          43.26605504587156,68.34234234234235,0
          43.26605504587156,68.35835835835836,0
          43.26605504587156,68.37437437437437,0
          43.26605504587156,68.3903903903904,0
          43.26605504587156,68.4064064064064,0
          43.26605504587156,68.42242242242243,0
          43.26605504587156,68.43843843843844,0
          43.26605504587156,68.45445445445445,0
          43.26605504587156,68.47047047047047,0
          43.26605504587156,68.48648648648648,0
          43.26605504587156,68.50250250250251,0
          43.26605504587156,68.51851851851852,0
          43.26605504587156,68.53453453453453,0
          43.26605504587156,68.55055055055055,0
          43.26605504587156,68.56656656656656,0
          43.22268557130943,68.58258258258259,0
          43.22268557130943,68.5985985985986,0
          43.22268557130943,68.61461461461461,0
          43.22268557130943,68.63063063063063,0
          43.22268557130943,68.64664664664664,0
          43.26605504587156,68.66266266266267,0
          43.309424520433694,68.67867867867868,0
          43.35279399499583,68.69469469469469,0
          43.35279399499583,68.71071071071071,0
          43.35279399499583,68.72672672672672,0
          43.39616346955796,68.74274274274275,0
          43.39616346955796,68.75875875875876,0
          43.39616346955796,68.77477477477477,0
          43.39616346955796,68.7907907907908,0
          43.39616346955796,68.8068068068068,0
          43.39616346955796,68.82282282282283,0
          43.39616346955796,68.83883883883884,0
          43.39616346955796,68.85485485485485,0
          43.4395329441201,68.87087087087087,0
          43.4395329441201,68.88688688688688,0
          43.4395329441201,68.90290290290291,0
          43.4395329441201,68.91891891891892,0
          43.4395329441201,68.93493493493493,0
          43.4395329441201,68.95095095095095,0
          43.4395329441201,68.96696696696696,0
          43.4395329441201,68.98298298298299,0
          43.4395329441201,68.998998998999,0
          43.48290241868224,69.01501501501501,0
          43.48290241868224,69.03103103103103,0
          43.48290241868224,69.04704704704704,0
          43.48290241868224,69.06306306306307,0
          43.48290241868224,69.07907907907908,0
          43.48290241868224,69.09509509509509,0
          43.48290241868224,69.11111111111111,0
          43.48290241868224,69.12712712712712,0
          43.48290241868224,69.14314314314315,0
          43.52627189324437,69.15915915915916,0
          43.52627189324437,69.17517517517517,0
          43.52627189324437,69.1911911911912,0
          43.52627189324437,69.2072072072072,0
          43.52627189324437,69.22322322322323,0
          43.569641367806504,69.23923923923924,0
          43.569641367806504,69.25525525525525,0
          43.61301084236864,69.27127127127127,0
          43.65638031693078,69.28728728728728,0
          43.65638031693078,69.30330330330331,0
          43.69974979149291,69.31931931931932,0
          43.74311926605505,69.33533533533533,0
          43.74311926605505,69.35135135135135,0
          43.78648874061718,69.36736736736736,0
          43.78648874061718,69.38338338338339,0
          43.829858215179314,69.3993993993994,0
          43.873227689741455,69.41541541541541,0
          43.873227689741455,69.43143143143143,0
          43.91659716430359,69.44744744744744,0
          43.95996663886572,69.46346346346347,0
          43.95996663886572,69.47947947947948,0
          44.003336113427856,69.49549549549549,0
          44.04670558798999,69.51151151151151,0
          44.04670558798999,69.52752752752752,0
          44.09007506255213,69.54354354354355,0
          44.13344453711426,69.55955955955956,0
          44.13344453711426,69.57557557557557,0
          44.1768140116764,69.5915915915916,0
          44.22018348623853,69.6076076076076,0
          44.22018348623853,69.62362362362363,0
          44.263552960800666,69.63963963963964,0
          44.30692243536281,69.65565565565565,0
          44.30692243536281,69.67167167167167,0
          44.350291909924934,69.68768768768768,0
          44.393661384487075,69.70370370370371,0
          44.393661384487075,69.71971971971972,0
          44.43703085904921,69.73573573573573,0
          44.48040033361134,69.75175175175175,0
          44.48040033361134,69.76776776776777,0
          44.52376980817348,69.78378378378379,0
          44.56713928273561,69.7997997997998,0
          44.56713928273561,69.81581581581581,0
          44.61050875729775,69.83183183183183,0
          44.653878231859885,69.84784784784785,0
          44.653878231859885,69.86386386386387,0
          44.69724770642202,69.87987987987988,0
          44.74061718098415,69.89589589589589,0
          44.74061718098415,69.91191191191191,0
          44.783986655546286,69.92792792792793,0
          44.82735613010843,69.94394394394395,0
          44.82735613010843,69.95995995995996,0
          44.87072560467056,69.97597597597597,0
          44.914095079232695,69.991991991992,0
          44.914095079232695,70.008008008008,0
          44.95746455379483,70.02402402402403,0
          45.00083402835696,70.04004004004004,0
          45.00083402835696,70.05605605605605,0
          45.0442035029191,70.07207207207207,0
          45.08757297748123,70.08808808808809,0
          45.08757297748123,70.10410410410411,0
          45.13094245204337,70.12012012012012,0
          45.174311926605505,70.13613613613613,0
          45.21768140116764,70.15215215215215,0
          45.26105087572978,70.16816816816817,0
          45.304420350291906,70.18418418418419,0
          45.34778982485405,70.2002002002002,0
          45.39115929941618,70.21621621621621,0
          45.434528773978315,70.23223223223223,0
          45.477898248540455,70.24824824824825,0
          45.52126772310258,70.26426426426427,0
          45.56463719766472,70.28028028028028,0
          45.60800667222686,70.29629629629629,0
          45.65137614678899,70.31231231231232,0
          45.69474562135113,70.32832832832833,0
          45.73811509591326,70.34434434434435,0
          45.7814845704754,70.36036036036036,0
          45.82485404503753,70.37637637637637,0
          45.86822351959967,70.3923923923924,0
          45.9115929941618,70.4084084084084,0
          45.954962468723934,70.42442442442443,0
          45.998331943286075,70.44044044044044,0
          46.04170141784821,70.45645645645645,0
          46.08507089241034,70.47247247247248,0
          46.12844036697248,70.48848848848849,0
          46.17180984153461,70.50450450450451,0
          46.21517931609675,70.52052052052052,0
          46.25854879065888,70.53653653653653,0
          46.30191826522102,70.55255255255256,0
          46.34528773978315,70.56856856856857,0
          46.38865721434529,70.58458458458459,0
          46.43202668890743,70.6006006006006,0
          46.475396163469554,70.61661661661661,0
          46.518765638031695,70.63263263263264,0
          46.56213511259383,70.64864864864865,0
          46.60550458715596,70.66466466466467,0
          46.648874061718104,70.68068068068068,0
          46.69224353628023,70.69669669669669,0
          46.73561301084237,70.71271271271272,0
          46.778982485404505,70.72872872872873,0
          46.82235195996664,70.74474474474475,0
          46.86572143452878,70.76076076076076,0
          46.90909090909091,70.77677677677677,0
          46.95246038365305,70.7927927927928,0
          46.99582985821518,70.8088088088088,0
          47.039199332777315,70.82482482482483,0
          47.08256880733945,70.84084084084084,0
          47.12593828190158,70.85685685685685,0
          47.16930775646372,70.87287287287288,0
          47.21267723102586,70.88888888888889,0
          47.25604670558799,70.90490490490491,0
          47.299416180150125,70.92092092092092,0
          47.34278565471226,70.93693693693693,0
          47.3861551292744,70.95295295295296,0
          47.429524603836526,70.96896896896897,0
          47.47289407839867,70.98498498498499,0
          47.5162635529608,71.001001001001,0
          47.559633027522935,71.01701701701701,0
          47.603002502085076,71.03303303303304,0
          47.6463719766472,71.04904904904905,0
          47.68974145120934,71.06506506506507,0
          47.73311092577148,71.08108108108108,0
          47.77648040033361,71.09709709709709,0
          47.81984987489575,71.11311311311312,0
          47.86321934945788,71.12912912912913,0
          47.90658882402002,71.14514514514515,0
          47.94995829858215,71.16116116116116,0
          47.99332777314429,71.17717717717717,0
          48.03669724770643,71.1931931931932,0
          48.080066722268555,71.2092092092092,0
          48.123436196830696,71.22522522522523,0
          48.16680567139283,71.24124124124124,0
          48.21017514595496,71.25725725725725,0
          48.2535446205171,71.27327327327328,0
          48.29691409507923,71.28928928928929,0
          48.34028356964137,71.30530530530531,0
          48.3836530442035,71.32132132132132,0
          48.42702251876564,71.33733733733733,0
          48.47039199332777,71.35335335335336,0
          48.51376146788991,71.36936936936937,0
          48.55713094245205,71.38538538538539,0
          48.600500417014175,71.4014014014014,0
          48.643869891576315,71.41741741741741,0
          48.68723936613845,71.43343343343344,0
          48.73060884070058,71.44944944944945,0
          48.773978315262724,71.46546546546547,0
          48.81734778982485,71.48148148148148,0
          48.86071726438699,71.49749749749749,0
          48.904086738949125,71.51351351351352,0
          48.94745621351126,71.52952952952953,0
          48.9908256880734,71.54554554554555,0
          49.03419516263553,71.56156156156156,0
          49.07756463719767,71.57757757757757,0
          49.1209341117598,71.5935935935936,0
          49.164303586321935,71.6096096096096,0
          49.207673060884076,71.62562562562563,0
          49.2510425354462,71.64164164164164,0
          49.294412010008344,71.65765765765765,0
          49.33778148457048,71.67367367367368,0
          49.38115095913261,71.68968968968969,0
          49.424520433694745,71.70570570570571,0
          49.46788990825688,71.72172172172172,0
          49.51125938281902,71.73773773773775,0
          49.55462885738115,71.75375375375376,0
          49.59799833194329,71.76976976976977,0
          49.64136780650542,71.78578578578579,0
          49.684737281067555,71.8018018018018,0
          49.728106755629696,71.81781781781783,0
          49.77147623019182,71.83383383383384,0
          49.814845704753964,71.84984984984985,0
          49.8582151793161,71.86586586586587,0
          49.90158465387823,71.88188188188188,0
          49.94495412844037,71.8978978978979,0
          49.9883236030025,71.91391391391392,0
          50.03169307756464,71.92992992992993,0
          50.075062552126774,71.94594594594595,0
          50.11843202668891,71.96196196196196,0
          50.16180150125105,71.97797797797799,0
          50.205170975813175,71.993993993994,0
          50.248540450375316,72.01001001001,0
          50.29190992493745,72.02602602602603,0
          50.33527939949958,72.04204204204204,0
          50.37864887406172,72.05805805805807,0
          50.42201834862385,72.07407407407408,0
          50.46538782318599,72.09009009009009,0
          50.508757297748126,72.10610610610611,0
          50.55212677231026,72.12212212212212,0
          50.59549624687239,72.13813813813815,0
          50.63886572143453,72.15415415415416,0
          50.68223519599667,72.17017017017017,0
          50.725604670558795,72.18618618618619,0
          50.768974145120936,72.2022022022022,0
          50.81234361968307,72.21821821821823,0
          50.8557130942452,72.23423423423424,0
          50.899082568807344,72.25025025025025,0
          50.94245204336947,72.26626626626627,0
          50.94245204336947,72.28228228228228,0
          50.94245204336947,72.2982982982983,0
          50.94245204336947,72.31431431431432,0
          50.94245204336947,72.33033033033033,0
          50.94245204336947,72.34634634634635,0
          50.94245204336947,72.36236236236236,0
          50.94245204336947,72.37837837837839,0
          50.94245204336947,72.3943943943944,0
          50.94245204336947,72.4104104104104,0
          50.94245204336947,72.42642642642643,0
          50.94245204336947,72.44244244244244,0
          50.94245204336947,72.45845845845847,0
          50.94245204336947,72.47447447447448,0
          50.94245204336947,72.49049049049049,0
          50.94245204336947,72.50650650650651,0
          50.94245204336947,72.52252252252252,0
          50.94245204336947,72.53853853853855,0
          50.94245204336947,72.55455455455456,0
          50.98582151793161,72.57057057057057,0
          50.98582151793161,72.58658658658659,0
          50.98582151793161,72.6026026026026,0
          50.98582151793161,72.61861861861863,0
          50.98582151793161,72.63463463463464,0
          50.98582151793161,72.65065065065065,0
          50.98582151793161,72.66666666666667,0
          50.98582151793161,72.68268268268268,0
          50.98582151793161,72.6986986986987,0
          50.98582151793161,72.71471471471472,0
          50.98582151793161,72.73073073073073,0
          50.98582151793161,72.74674674674675,0
          50.98582151793161,72.76276276276276,0
          50.98582151793161,72.77877877877879,0
          50.98582151793161,72.7947947947948,0
          50.98582151793161,72.8108108108108,0
          50.98582151793161,72.82682682682683,0
          50.98582151793161,72.84284284284284,0
          50.98582151793161,72.85885885885887,0
          50.98582151793161,72.87487487487488,0
          50.98582151793161,72.89089089089089,0
          50.98582151793161,72.90690690690691,0
          50.98582151793161,72.92292292292292,0
          50.98582151793161,72.93893893893895,0
          50.98582151793161,72.95495495495496,0
          50.98582151793161,72.97097097097097,0
          50.98582151793161,72.98698698698699,0
          50.98582151793161,73.003003003003,0
          51.029190992493746,73.01901901901903,0
          51.07256046705588,73.03503503503504,0
          51.11592994161802,73.05105105105105,0
          51.15929941618015,73.06706706706707,0
          51.20266889074229,73.08308308308308,0
          51.24603836530442,73.0990990990991,0
          51.289407839866556,73.11511511511512,0
          51.3327773144287,73.13113113113113,0
          51.37614678899082,73.14714714714715,0
          51.419516263552964,73.16316316316316,0
          51.4628857381151,73.17917917917919,0
          51.50625521267723,73.1951951951952,0
          51.549624687239366,73.21121121121121,0
          51.5929941618015,73.22722722722723,0
          51.63636363636364,73.24324324324324,0
          51.679733110925774,73.25925925925927,0
          51.72310258548791,73.27527527527528,0
          51.76647206005004,73.29129129129129,0
          51.809841534612175,73.30730730730731,0
          51.853211009174316,73.32332332332332,0
          51.89658048373644,73.33933933933935,0
          51.939949958298584,73.35535535535536,0
          51.98331943286072,73.37137137137137,0
          52.02668890742285,73.38738738738739,0
          52.07005838198499,73.4034034034034,0
          52.11342785654712,73.41941941941943,0
          52.15679733110926,73.43543543543544,0
          52.200166805671394,73.45145145145145,0
          52.24353628023353,73.46746746746747,0
          52.28690575479567,73.48348348348348,0
          52.330275229357795,73.4994994994995,0
          52.373644703919936,73.51551551551552,0
          52.41701417848207,73.53153153153153,0
          52.460383653044204,73.54754754754755,0
          52.503753127606345,73.56356356356356,0
          52.54712260216847,73.57957957957959,0
          52.59049207673061,73.5955955955956,0
          52.633861551292746,73.61161161161161,0
          52.67723102585488,73.62762762762763,0
          52.720600500417014,73.64364364364364,0
          52.76396997497915,73.65965965965967,0
          52.80733944954129,73.67567567567568,0
          52.85070892410342,73.69169169169169,0
          52.894078398665556,73.70770770770771,0
          52.93744787322769,73.72372372372372,0
          52.980817347789824,73.73973973973975,0
          53.024186822351965,73.75575575575576,0
          53.06755629691409,73.77177177177177,0
          53.11092577147623,73.78778778778779,0
          53.154295246038366,73.8038038038038,0
          53.1976647206005,73.81981981981983,0
          53.24103419516264,73.83583583583584,0
          53.28440366972477,73.85185185185185,0
          53.32777314428691,73.86786786786787,0
          53.37114261884904,73.88388388388388,0
          53.414512093411176,73.8998998998999,0
          53.45788156797332,73.91591591591592,0
          53.50125104253544,73.93193193193193,0
          53.544620517097584,73.94794794794795,0
          53.58798999165972,73.96396396396396,0
          53.63135946622185,73.97997997997999,0
          53.67472894078399,73.995995995996,0
          53.67472894078399,74.01201201201201,0
          53.71809841534612,74.02802802802803,0
          53.76146788990826,74.04404404404404,0
          53.76146788990826,74.06006006006007,0
          53.804837364470394,74.07607607607608,0
          53.804837364470394,74.09209209209209,0
          53.84820683903253,74.10810810810811,0
          53.84820683903253,74.12412412412412,0
          53.89157631359466,74.14014014014015,0
          53.89157631359466,74.15615615615616,0
          53.934945788156796,74.17217217217217,0
          53.934945788156796,74.18818818818819,0
          53.97831526271894,74.2042042042042,0
          53.97831526271894,74.22022022022023,0
          54.02168473728106,74.23623623623624,0
          54.02168473728106,74.25225225225225,0
          54.065054211843204,74.26826826826827,0
          54.10842368640534,74.28428428428428,0
          54.10842368640534,74.30030030030031,0
          54.15179316096747,74.31631631631632,0
          54.15179316096747,74.33233233233233,0
          54.19516263552961,74.34834834834835,0
          54.19516263552961,74.36436436436436,0
          54.23853211009174,74.38038038038039,0
          54.23853211009174,74.3963963963964,0
          54.28190158465388,74.41241241241241,0
          54.28190158465388,74.42842842842843,0
          54.325271059216014,74.44444444444444,0
          54.325271059216014,74.46046046046047,0
          54.36864053377815,74.47647647647648,0
          54.41201000834029,74.49249249249249,0
          54.41201000834029,74.50850850850851,0
          54.455379482902416,74.52452452452452,0
          54.455379482902416,74.54054054054055,0
          54.49874895746456,74.55655655655656,0
          54.49874895746456,74.57257257257257,0
          54.54211843202669,74.58858858858859,0
          54.54211843202669,74.6046046046046,0
          54.585487906588824,74.62062062062063,0
          54.585487906588824,74.63663663663664,0
          54.628857381150965,74.65265265265265,0
          54.628857381150965,74.66866866866867,0
          54.67222685571309,74.68468468468468,0
          54.71559633027523,74.70070070070071,0
          54.71559633027523,74.71671671671672,0
          54.758965804837366,74.73273273273273,0
          54.758965804837366,74.74874874874875,0
          54.8023352793995,74.76476476476476,0
          54.8023352793995,74.78078078078079,0
          54.845704753961634,74.7967967967968,0
          54.845704753961634,74.81281281281281,0
          54.88907422852377,74.82882882882883,0
          54.88907422852377,74.84484484484484,0
          54.845704753961634,74.86086086086087,0
          54.8023352793995,74.87687687687688,0
          54.758965804837366,74.89289289289289,0
          54.71559633027523,74.90890890890891,0
          54.67222685571309,74.92492492492492,0
          54.628857381150965,74.94094094094095,0
          54.585487906588824,74.95695695695696,0
          54.54211843202669,74.97297297297297,0
          54.49874895746456,74.988988988989,0
          54.455379482902416,75.005005005005,0
          54.41201000834029,75.02102102102103,0
          54.36864053377815,75.03703703703704,0
          54.325271059216014,75.05305305305305,0
          54.28190158465388,75.06906906906907,0
          54.23853211009174,75.08508508508508,0
          54.19516263552961,75.10110110110111,0
          54.23853211009174,75.11711711711712,0
          54.28190158465388,75.13313313313313,0
          54.325271059216014,75.14914914914915,0
          54.36864053377815,75.16516516516516,0
          54.41201000834029,75.18118118118119,0
          54.455379482902416,75.1971971971972,0
          54.49874895746456,75.21321321321321,0
          54.54211843202669,75.22922922922923,0
          54.585487906588824,75.24524524524524,0
          54.628857381150965,75.26126126126127,0
          54.67222685571309,75.27727727727728,0
          54.71559633027523,75.29329329329329,0
          54.758965804837366,75.30930930930931,0
          54.8023352793995,75.32532532532532,0
          54.845704753961634,75.34134134134135,0
          54.88907422852377,75.35735735735736,0
          54.93244370308591,75.37337337337337,0
          54.97581317764804,75.3893893893894,0
          55.019182652210176,75.4054054054054,0
          55.06255212677231,75.42142142142143,0
          55.105921601334444,75.43743743743744,0
          55.149291075896585,75.45345345345345,0
          55.19266055045871,75.46946946946947,0
          55.23603002502085,75.48548548548548,0
          55.279399499582986,75.50150150150151,0
          55.32276897414512,75.51751751751752,0
          55.36613844870726,75.53353353353353,0
          55.40950792326939,75.54954954954955,0
          55.45287739783153,75.56556556556556,0
          55.49624687239366,75.58158158158159,0
          55.539616346955796,75.5975975975976,0
          55.58298582151794,75.61361361361361,0
          55.626355296080064,75.62962962962963,0
          55.669724770642205,75.64564564564564,0
          55.71309424520434,75.66166166166167,0
          55.75646371976647,75.67767767767768,0
          55.79983319432861,75.69369369369369,0
          55.84320266889074,75.70970970970971,0
          55.88657214345288,75.72572572572572,0
          55.929941618015015,75.74174174174175,0
          55.97331109257715,75.75775775775776,0
          56.01668056713928,75.77377377377377,0
          56.060050041701416,75.7897897897898,0
          56.10341951626356,75.8058058058058,0
          56.14678899082569,75.82182182182183,0
          56.190158465387825,75.83783783783784,0
          56.23352793994996,75.85385385385385,0
          56.27689741451209,75.86986986986987,0
          56.32026688907423,75.88588588588588,0
          56.36363636363636,75.90190190190191,0
          56.4070058381985,75.91791791791792,0
          56.450375312760634,75.93393393393393,0
          56.49374478732277,75.94994994994995,0
          56.53711426188491,75.96596596596596,0
          56.580483736447036,75.98198198198199,0
          56.62385321100918,75.997997997998,0
          56.66722268557131,76.01401401401401,0
          56.710592160133444,76.03003003003003,0
          56.753961634695585,76.04604604604604,0
          56.79733110925771,76.06206206206207,0
          56.84070058381985,76.07807807807808,0
          56.88407005838199,76.09409409409409,0
          56.92743953294412,76.11011011011011,0
          56.97080900750626,76.12612612612612,0
          57.01417848206839,76.14214214214215,0
          57.05754795663053,76.15815815815816,0
          57.10091743119266,76.17417417417417,0
          57.1442869057548,76.1901901901902,0
          57.18765638031693,76.2062062062062,0
          57.231025854879064,76.22222222222223,0
          57.274395329441205,76.23823823823824,0
          57.31776480400334,76.25425425425425,0
          57.36113427856547,76.27027027027027,0
          57.40450375312761,76.28628628628628,0
          57.44787322768974,76.30230230230231,0
          57.49124270225188,76.31831831831832,0
          57.53461217681401,76.33433433433433,0
          57.57798165137615,76.35035035035035,0
          57.62135112593828,76.36636636636636,0
          57.66472060050042,76.38238238238239,0
          57.70809007506256,76.3983983983984,0
          57.751459549624684,76.41441441441441,0
          57.794829024186825,76.43043043043043,0
          57.83819849874896,76.44644644644644,0
          57.88156797331109,76.46246246246247,0
          57.92493744787323,76.47847847847848,0
          57.96830692243536,76.49449449449449,0
          58.0116763969975,76.51051051051051,0
          58.055045871559635,76.52652652652652,0
          58.09841534612177,76.54254254254255,0
          58.14178482068391,76.55855855855856,0
          58.185154295246036,76.57457457457457,0
          58.22852376980818,76.5905905905906,0
          58.27189324437031,76.6066066066066,0
          58.315262718932445,76.62262262262263,0
          58.35863219349458,76.63863863863864,0
          58.40200166805671,76.65465465465465,0
          58.44537114261885,76.67067067067067,0
          58.48874061718099,76.68668668668668,0
          58.53211009174312,76.70270270270271,0
          58.575479566305255,76.71871871871872,0
          58.61884904086739,76.73473473473473,0
          58.66221851542953,76.75075075075075,0
          58.705587989991656,76.76676676676676,0
          58.7489574645538,76.78278278278279,0
          58.79232693911593,76.7987987987988,0
          58.835696413678065,76.81481481481481,0
          58.879065888240206,76.83083083083083,0
          58.92243536280233,76.84684684684684,0
          58.96580483736447,76.86286286286287,0
          59.00917431192661,76.87887887887888,0
          59.05254378648874,76.89489489489489,0
          59.09591326105088,76.91091091091091,0
          59.13928273561301,76.92692692692692,0
          59.18265221017515,76.94294294294295,0
          59.22602168473728,76.95895895895896,0
          59.26939115929942,76.97497497497497,0
          59.31276063386156,76.990990990991,0
          59.356130108423685,77.007007007007,0
          59.399499582985825,77.02302302302303,0
          59.44286905754796,77.03903903903904,0
          59.48623853211009,77.05505505505505,0
          59.52960800667223,77.07107107107107,0
          59.57297748123436,77.08708708708708,0
          59.6163469557965,77.10310310310311,0
          59.65971643035863,77.11911911911912,0
          59.70308590492077,77.13513513513513,0
          59.7464553794829,77.15115115115115,0
          59.78982485404504,77.16716716716716,0
          59.83319432860718,77.18318318318319,0
          59.876563803169304,77.18318318318319,0
          59.919933277731445,77.18318318318319,0
          59.96330275229358,77.18318318318319,0
          60.00667222685571,77.18318318318319,0
          60.05004170141785,77.18318318318319,0
          60.09341117597999,77.18318318318319,0
          60.13678065054212,77.18318318318319,0
          60.180150125104255,77.18318318318319,0
          60.22351959966639,77.18318318318319,0
          60.26688907422852,77.18318318318319,0
          60.310258548790664,77.18318318318319,0
          60.3536280233528,77.18318318318319,0
          60.39699749791493,77.18318318318319,0
          60.440366972477065,77.18318318318319,0
          60.4837364470392,77.18318318318319,0
          60.52710592160133,77.18318318318319,0
          60.570475396163474,77.18318318318319,0
          60.61384487072561,77.18318318318319,0
          60.65721434528774,77.18318318318319,0
          60.700583819849875,77.18318318318319,0
          60.74395329441201,77.18318318318319,0
          60.78732276897415,77.18318318318319,0
          60.830692243536284,77.18318318318319,0
          60.87406171809842,77.18318318318319,0
          60.91743119266055,77.18318318318319,0
          60.960800667222685,77.1991991991992,0
          61.00417014178482,77.1991991991992,0
          61.04753961634696,77.1991991991992,0
          61.09090909090909,77.1991991991992,0
          61.13427856547123,77.1991991991992,0
          61.17764804003336,77.1991991991992,0
          61.221017514595495,77.1991991991992,0
          61.264386989157636,77.1991991991992,0
          61.30775646371977,77.1991991991992,0
          61.3511259382819,77.1991991991992,0
          61.39449541284404,77.1991991991992,0
          61.43786488740617,77.1991991991992,0
          61.481234361968305,77.1991991991992,0
          61.524603836530446,77.1991991991992,0
          61.56797331109258,77.1991991991992,0
          61.61134278565471,77.1991991991992,0
          61.65471226021685,77.1991991991992,0
          61.69808173477898,77.1991991991992,0
          61.74145120934112,77.1991991991992,0
          61.784820683903256,77.1991991991992,0
          61.82819015846539,77.1991991991992,0
          61.87155963302752,77.1991991991992,0
          61.91492910758966,77.1991991991992,0
          61.9582985821518,77.1991991991992,0
          62.00166805671393,77.1991991991992,0
          62.045037531276066,77.1991991991992,0
          62.0884070058382,77.1991991991992,0
          62.13177648040033,77.1991991991992,0
          62.17514595496247,77.21521521521521,0
          62.21851542952461,77.21521521521521,0
          62.26188490408674,77.21521521521521,0
          62.305254378648876,77.21521521521521,0
          62.34862385321101,77.21521521521521,0
          62.39199332777314,77.21521521521521,0
          62.435362802335284,77.21521521521521,0
          62.47873227689742,77.21521521521521,0
          62.52210175145955,77.21521521521521,0
          62.565471226021685,77.21521521521521,0
          62.60884070058382,77.21521521521521,0
          62.65221017514595,77.21521521521521,0
          62.695579649708094,77.21521521521521,0
          62.73894912427023,77.21521521521521,0
          62.78231859883236,77.21521521521521,0
          62.825688073394495,77.21521521521521,0
          62.86905754795663,77.21521521521521,0
          62.91242702251877,77.21521521521521,0
          62.955796497080904,77.21521521521521,0
          62.99916597164304,77.21521521521521,0
          63.04253544620517,77.21521521521521,0
          63.085904920767305,77.21521521521521,0
          63.129274395329446,77.21521521521521,0
          63.17264386989158,77.21521521521521,0
          63.216013344453714,77.21521521521521,0
          63.25938281901585,77.21521521521521,0
          63.30275229357798,77.21521521521521,0
          63.346121768140115,77.21521521521521,0
          63.389491242702256,77.23123123123123,0
          63.43286071726439,77.23123123123123,0
          63.476230191826524,77.23123123123123,0
          63.51959966638866,77.23123123123123,0
          63.56296914095079,77.23123123123123,0
          63.60633861551293,77.23123123123123,0
          63.649708090075066,77.23123123123123,0
          63.6930775646372,77.23123123123123,0
          63.736447039199334,77.23123123123123,0
          63.77981651376147,77.23123123123123,0
          63.8231859883236,77.23123123123123,0
          63.86655546288574,77.23123123123123,0
          63.909924937447876,77.23123123123123,0
          63.95329441201001,77.23123123123123,0
          63.996663886572144,77.23123123123123,0
          64.04003336113428,77.23123123123123,0
          64.08340283569642,77.23123123123123,0
          64.12677231025856,77.23123123123123,0
          64.17014178482069,77.23123123123123,0
          64.21351125938281,77.23123123123123,0
          64.25688073394495,77.23123123123123,0
          64.3002502085071,77.23123123123123,0
          64.34361968306922,77.23123123123123,0
          64.38698915763136,77.23123123123123,0
          64.4303586321935,77.23123123123123,0
          64.47372810675563,77.23123123123123,0
          64.51709758131776,77.23123123123123,0
          64.56046705587991,77.24724724724724,0
          64.60383653044204,77.24724724724724,0
          64.64720600500416,77.24724724724724,0
          64.6905754795663,77.24724724724724,0
          64.73394495412845,77.24724724724724,0
          64.77731442869057,77.24724724724724,0
          64.82068390325271,77.24724724724724,0
          64.86405337781486,77.24724724724724,0
          64.90742285237698,77.24724724724724,0
          64.95079232693911,77.24724724724724,0
          64.99416180150125,77.24724724724724,0
          65.03753127606339,77.24724724724724,0
          65.08090075062552,77.24724724724724,0
          65.12427022518766,77.24724724724724,0
          65.1676396997498,77.24724724724724,0
          65.21100917431193,77.24724724724724,0
          65.25437864887407,77.24724724724724,0
          65.29774812343621,77.24724724724724,0
          65.34111759799833,77.24724724724724,0
          65.38448707256046,77.24724724724724,0
          65.4278565471226,77.24724724724724,0
          65.47122602168474,77.24724724724724,0
          65.51459549624687,77.24724724724724,0
          65.55796497080901,77.24724724724724,0
          65.60133444537115,77.24724724724724,0
          65.64470391993328,77.24724724724724,0
          65.6880733944954,77.24724724724724,0
          65.73144286905756,77.24724724724724,0
          65.77481234361969,77.26326326326327,0
          65.81818181818181,77.26326326326327,0
          65.86155129274395,77.26326326326327,0
          65.9049207673061,77.26326326326327,0
          65.94829024186822,77.26326326326327,0
          65.99165971643036,77.26326326326327,0
          66.0350291909925,77.26326326326327,0
          66.07839866555463,77.26326326326327,0
          66.12176814011676,77.26326326326327,0
          66.1651376146789,77.26326326326327,0
          66.20850708924104,77.26326326326327,0
          66.25187656380317,77.26326326326327,0
          66.2952460383653,77.26326326326327,0
          66.33861551292745,77.26326326326327,0
          66.38198498748957,77.27927927927928,0
          66.42535446205171,77.29529529529529,0
          66.46872393661386,77.31131131131131,0
          66.51209341117598,77.32732732732732,0
          66.55546288573811,77.34334334334335,0
          66.59883236030025,77.35935935935936,0
          66.64220183486239,77.37537537537537,0
          66.68557130942452,77.3913913913914,0
          66.72894078398666,77.4074074074074,0
          66.7723102585488,77.42342342342343,0
          66.81567973311093,77.43943943943944,0
          66.85904920767305,77.45545545545545,0
          66.90241868223521,77.45545545545545,0
          66.94578815679733,77.45545545545545,0
          66.98915763135946,77.45545545545545,0
          67.0325271059216,77.45545545545545,0
          67.07589658048374,77.45545545545545,0
          67.11926605504587,77.45545545545545,0
          67.16263552960801,77.45545545545545,0
          67.20600500417015,77.45545545545545,0
          67.24937447873228,77.45545545545545,0
          67.2927439532944,77.45545545545545,0
          67.33611342785655,77.45545545545545,0
          67.37948290241869,77.45545545545545,0
          67.42285237698081,77.45545545545545,0
          67.46622185154295,77.45545545545545,0
          67.5095913261051,77.45545545545545,0
          67.55296080066722,77.45545545545545,0
          67.59633027522936,77.45545545545545,0
          67.6396997497915,77.45545545545545,0
          67.68306922435363,77.45545545545545,0
          67.72643869891576,77.47147147147147,0
          67.7698081734779,77.47147147147147,0
          67.81317764804004,77.47147147147147,0
          67.85654712260217,77.47147147147147,0
          67.8999165971643,77.47147147147147,0
          67.94328607172645,77.47147147147147,0
          67.98665554628857,77.47147147147147,0
          68.0300250208507,77.47147147147147,0
          68.07339449541286,77.47147147147147,0
          68.11676396997498,77.47147147147147,0
          68.16013344453711,77.47147147147147,0
          68.20350291909925,77.47147147147147,0
          68.24687239366139,77.47147147147147,0
          68.29024186822352,77.47147147147147,0
          68.33361134278566,77.47147147147147,0
          68.3769808173478,77.47147147147147,0
          68.42035029190993,77.47147147147147,0
          68.46371976647205,77.47147147147147,0
          68.5070892410342,77.47147147147147,0
          68.55045871559633,77.47147147147147,0
          68.59382819015846,77.47147147147147,0
          68.6371976647206,77.47147147147147,0
          68.68056713928274,77.47147147147147,0
          68.72393661384487,77.47147147147147,0
          68.767306088407,77.47147147147147,0
          68.81067556296915,77.47147147147147,0
          68.85404503753128,77.47147147147147,0
          68.8974145120934,77.47147147147147,0
          68.94078398665555,77.48748748748748,0
          68.98415346121769,77.48748748748748,0
          69.02752293577981,77.48748748748748,0
          69.07089241034195,77.48748748748748,0
          69.1142618849041,77.48748748748748,0
          69.15763135946622,77.48748748748748,0
          69.20100083402835,77.48748748748748,0
          69.2443703085905,77.48748748748748,0
          69.28773978315263,77.48748748748748,0
          69.33110925771476,77.48748748748748,0
          69.3744787322769,77.48748748748748,0
          69.41784820683904,77.48748748748748,0
          69.46121768140117,77.48748748748748,0
          69.5045871559633,77.48748748748748,0
          69.54795663052545,77.48748748748748,0
          69.59132610508757,77.48748748748748,0
          69.6346955796497,77.48748748748748,0
          69.67806505421184,77.48748748748748,0
          69.72143452877398,77.48748748748748,0
          69.76480400333611,77.48748748748748,0
          69.80817347789825,77.48748748748748,0
          69.85154295246039,77.48748748748748,0
          69.89491242702252,77.48748748748748,0
          69.93828190158465,77.48748748748748,0
          69.9816513761468,77.48748748748748,0
          70.02502085070893,77.48748748748748,0
          70.06839032527105,77.48748748748748,0
          70.1117597998332,77.50350350350351,0
          70.15512927439534,77.50350350350351,0
          70.19849874895746,77.50350350350351,0
          70.2418682235196,77.50350350350351,0
          70.28523769808174,77.50350350350351,0
          70.32860717264387,77.50350350350351,0
          70.371976647206,77.50350350350351,0
          70.41534612176815,77.50350350350351,0
          70.45871559633028,77.50350350350351,0
          70.5020850708924,77.50350350350351,0
          70.54545454545455,77.50350350350351,0
          70.58882402001669,77.50350350350351,0
          70.63219349457881,77.50350350350351,0
          70.67556296914096,77.50350350350351,0
          70.7189324437031,77.48748748748748,0
          70.76230191826522,77.47147147147147,0
          70.80567139282735,77.45545545545545,0
          70.84904086738949,77.43943943943944,0
          70.89241034195163,77.42342342342343,0
          70.93577981651376,77.4074074074074,0
          70.9791492910759,77.3913913913914,0
          71.02251876563804,77.37537537537537,0
          71.06588824020017,77.35935935935936,0
          71.1092577147623,77.34334334334335,0
          71.15262718932445,77.32732732732732,0
          71.19599666388658,77.31131131131131,0
          71.2393661384487,77.29529529529529,0
          71.28273561301084,77.27927927927928,0
          71.32610508757298,77.26326326326327,0
          71.36947456213511,77.24724724724724,0
          71.41284403669725,77.23123123123123,0
          71.45621351125939,77.21521521521521,0
          71.49958298582152,77.1991991991992,0
          71.54295246038365,77.18318318318319,0
          71.58632193494579,77.16716716716716,0
          71.62969140950793,77.15115115115115,0
          71.67306088407005,77.13513513513513,0
          71.7164303586322,77.11911911911912,0
          71.75979983319434,77.10310310310311,0
          71.80316930775646,77.08708708708708,0
          71.8465387823186,77.07107107107107,0
          71.88990825688074,77.05505505505505,0
          71.93327773144287,77.03903903903904,0
          71.976647206005,77.02302302302303,0
          72.02001668056714,77.007007007007,0
          72.06338615512928,76.990990990991,0
          72.1067556296914,76.97497497497497,0
          72.1067556296914,76.95895895895896,0
          72.1067556296914,76.94294294294295,0
          72.1067556296914,76.92692692692692,0
          72.1067556296914,76.91091091091091,0
          72.1067556296914,76.89489489489489,0
          72.1067556296914,76.87887887887888,0
          72.1067556296914,76.86286286286287,0
          72.1067556296914,76.84684684684684,0
          72.1067556296914,76.83083083083083,0
          72.1067556296914,76.81481481481481,0
          72.1067556296914,76.7987987987988,0
          72.1067556296914,76.78278278278279,0
          72.1067556296914,76.76676676676676,0
          72.1067556296914,76.75075075075075,0
          72.1067556296914,76.73473473473473,0
          72.1067556296914,76.71871871871872,0
          72.1067556296914,76.70270270270271,0
          72.1067556296914,76.68668668668668,0
          72.1067556296914,76.67067067067067,0
          72.1067556296914,76.65465465465465,0
          72.1067556296914,76.63863863863864,0
          72.1067556296914,76.62262262262263,0
          72.1067556296914,76.6066066066066,0
          72.1067556296914,76.5905905905906,0
          72.1067556296914,76.57457457457457,0
          72.1067556296914,76.55855855855856,0
          72.1067556296914,76.54254254254255,0
          72.1067556296914,76.52652652652652,0
          72.1067556296914,76.51051051051051,0
          72.1067556296914,76.49449449449449,0
          72.1067556296914,76.47847847847848,0
          72.1067556296914,76.46246246246247,0
          72.1067556296914,76.44644644644644,0
          72.1067556296914,76.43043043043043,0
          72.1067556296914,76.41441441441441,0
          72.1067556296914,76.3983983983984,0
          72.1067556296914,76.38238238238239,0
          72.1067556296914,76.36636636636636,0
          72.1067556296914,76.35035035035035,0
          72.1067556296914,76.33433433433433,0
          72.1067556296914,76.31831831831832,0
          72.1067556296914,76.30230230230231,0
          72.1067556296914,76.28628628628628,0
          72.1067556296914,76.27027027027027,0
          72.1067556296914,76.25425425425425,0
          72.1067556296914,76.23823823823824,0
          72.1067556296914,76.22222222222223,0
          72.1067556296914,76.2062062062062,0
          72.1067556296914,76.1901901901902,0
          72.1067556296914,76.17417417417417,0
          72.1067556296914,76.15815815815816,0
          72.1067556296914,76.14214214214215,0
          72.1067556296914,76.12612612612612,0
          72.1067556296914,76.11011011011011,0
          72.1067556296914,76.09409409409409,0
          72.1067556296914,76.07807807807808,0
          72.1067556296914,76.06206206206207,0
          72.1067556296914,76.04604604604604,0
          72.1067556296914,76.03003003003003,0
          72.1067556296914,76.01401401401401,0
          72.1067556296914,75.997997997998,0
          72.1067556296914,75.98198198198199,0
          72.1067556296914,75.96596596596596,0
          72.1067556296914,75.94994994994995,0
          72.1067556296914,75.93393393393393,0
          72.1067556296914,75.91791791791792,0
          72.1067556296914,75.90190190190191,0
          72.1067556296914,75.88588588588588,0
          72.1067556296914,75.86986986986987,0
          72.1067556296914,75.85385385385385,0
          72.1067556296914,75.83783783783784,0
          72.1067556296914,75.82182182182183,0
          72.1067556296914,75.8058058058058,0
          72.1067556296914,75.7897897897898,0
          72.1067556296914,75.77377377377377,0
          72.1067556296914,75.75775775775776,0
          72.1067556296914,75.74174174174175,0
          72.1067556296914,75.72572572572572,0
          72.1067556296914,75.70970970970971,0
          72.1067556296914,75.69369369369369,0
          72.1067556296914,75.67767767767768,0
          72.1067556296914,75.66166166166167,0
          72.1067556296914,75.64564564564564,0
          72.1067556296914,75.62962962962963,0
          72.1067556296914,75.61361361361361,0
          72.1067556296914,75.5975975975976,0
          72.1067556296914,75.58158158158159,0
          72.1067556296914,75.56556556556556,0
          72.15012510425355,75.54954954954955,0
          72.15012510425355,75.53353353353353,0
          72.15012510425355,75.51751751751752,0
          72.15012510425355,75.50150150150151,0
          72.15012510425355,75.48548548548548,0
          72.15012510425355,75.46946946946947,0
          72.15012510425355,75.45345345345345,0
          72.15012510425355,75.43743743743744,0
          72.15012510425355,75.42142142142143,0
          72.15012510425355,75.4054054054054,0
          72.15012510425355,75.3893893893894,0
          72.15012510425355,75.37337337337337,0
          72.15012510425355,75.35735735735736,0
          72.15012510425355,75.34134134134135,0
          72.15012510425355,75.32532532532532,0
          72.15012510425355,75.30930930930931,0
          72.15012510425355,75.29329329329329,0
          72.15012510425355,75.27727727727728,0
          72.15012510425355,75.26126126126127,0
          72.15012510425355,75.24524524524524,0
          72.15012510425355,75.22922922922923,0
          72.15012510425355,75.21321321321321,0
          72.15012510425355,75.1971971971972,0
          72.15012510425355,75.18118118118119,0
          72.15012510425355,75.16516516516516,0
          72.15012510425355,75.14914914914915,0
          72.15012510425355,75.13313313313313,0
          72.15012510425355,75.11711711711712,0
          72.15012510425355,75.10110110110111,0
          72.15012510425355,75.08508508508508,0
          72.15012510425355,75.06906906906907,0
          72.15012510425355,75.05305305305305,0
          72.15012510425355,75.03703703703704,0
          72.15012510425355,75.02102102102103,0
          72.15012510425355,75.005005005005,0
          72.15012510425355,74.988988988989,0
          72.15012510425355,74.97297297297297,0
          72.15012510425355,74.95695695695696,0
          72.15012510425355,74.94094094094095,0
          72.15012510425355,74.92492492492492,0
          72.15012510425355,74.90890890890891,0
          72.15012510425355,74.89289289289289,0
          72.15012510425355,74.87687687687688,0
          72.15012510425355,74.86086086086087,0
          72.15012510425355,74.84484484484484,0
          72.15012510425355,74.82882882882883,0
          72.15012510425355,74.81281281281281,0
          72.15012510425355,74.7967967967968,0
          72.15012510425355,74.78078078078079,0
          72.15012510425355,74.76476476476476,0
          72.15012510425355,74.74874874874875,0
          72.15012510425355,74.73273273273273,0
          72.15012510425355,74.71671671671672,0
          72.15012510425355,74.70070070070071,0
          72.15012510425355,74.68468468468468,0
          72.15012510425355,74.66866866866867,0
          72.15012510425355,74.65265265265265,0
          72.15012510425355,74.63663663663664,0
          72.15012510425355,74.62062062062063,0
          72.15012510425355,74.6046046046046,0
          72.15012510425355,74.58858858858859,0
          72.15012510425355,74.57257257257257,0
          72.15012510425355,74.55655655655656,0
          72.15012510425355,74.54054054054055,0
          72.15012510425355,74.52452452452452,0
          72.15012510425355,74.50850850850851,0
          72.15012510425355,74.49249249249249,0
          72.15012510425355,74.47647647647648,0
          72.15012510425355,74.46046046046047,0
          72.15012510425355,74.44444444444444,0
          72.15012510425355,74.42842842842843,0
          72.15012510425355,74.41241241241241,0
          72.15012510425355,74.3963963963964,0
          72.15012510425355,74.38038038038039,0
          72.15012510425355,74.36436436436436,0
          72.15012510425355,74.34834834834835,0
          72.15012510425355,74.33233233233233,0
          72.15012510425355,74.31631631631632,0
          72.15012510425355,74.30030030030031,0
          72.15012510425355,74.28428428428428,0
          72.15012510425355,74.26826826826827,0
          72.15012510425355,74.25225225225225,0
          72.15012510425355,74.23623623623624,0
          72.15012510425355,74.22022022022023,0
          72.15012510425355,74.2042042042042,0
          72.15012510425355,74.18818818818819,0
          72.15012510425355,74.17217217217217,0
          72.15012510425355,74.15615615615616,0
          72.15012510425355,74.14014014014015,0
          72.15012510425355,74.12412412412412,0
          72.15012510425355,74.10810810810811,0
          72.15012510425355,74.09209209209209,0
          72.15012510425355,74.07607607607608,0
          72.15012510425355,74.06006006006007,0
          72.15012510425355,74.04404404404404,0
          72.15012510425355,74.02802802802803,0
          72.15012510425355,74.01201201201201,0
          72.15012510425355,73.995995995996,0
          72.15012510425355,73.97997997997999,0
          72.15012510425355,73.96396396396396,0
          72.15012510425355,73.94794794794795,0
          72.19349457881569,73.93193193193193,0
          72.19349457881569,73.91591591591592,0
          72.19349457881569,73.8998998998999,0
          72.23686405337781,73.88388388388388,0
          72.23686405337781,73.86786786786787,0
          72.23686405337781,73.85185185185185,0
          72.28023352793994,73.83583583583584,0
          72.28023352793994,73.81981981981983,0
          72.28023352793994,73.8038038038038,0
          72.3236030025021,73.78778778778779,0
          72.3236030025021,73.77177177177177,0
          72.3236030025021,73.75575575575576,0
          72.3236030025021,73.73973973973975,0
          72.36697247706422,73.72372372372372,0
          72.36697247706422,73.70770770770771,0
          72.36697247706422,73.69169169169169,0
          72.41034195162635,73.67567567567568,0
          72.41034195162635,73.65965965965967,0
          72.41034195162635,73.64364364364364,0
          72.45371142618849,73.62762762762763,0
          72.45371142618849,73.61161161161161,0
          72.45371142618849,73.5955955955956,0
          72.49708090075063,73.57957957957959,0
          72.49708090075063,73.56356356356356,0
          72.49708090075063,73.54754754754755,0
          72.54045037531276,73.53153153153153,0
          72.54045037531276,73.51551551551552,0
          72.54045037531276,73.4994994994995,0
          72.5838198498749,73.48348348348348,0
          72.5838198498749,73.46746746746747,0
          72.5838198498749,73.45145145145145,0
          72.62718932443704,73.43543543543544,0
          72.62718932443704,73.41941941941943,0
          72.62718932443704,73.4034034034034,0
          72.67055879899917,73.38738738738739,0
          72.67055879899917,73.37137137137137,0
          72.67055879899917,73.35535535535536,0
          72.7139282735613,73.33933933933935,0
          72.7139282735613,73.32332332332332,0
          72.7139282735613,73.30730730730731,0
          72.75729774812343,73.29129129129129,0
          72.75729774812343,73.27527527527528,0
          72.75729774812343,73.25925925925927,0
          72.80066722268558,73.24324324324324,0
          72.80066722268558,73.22722722722723,0
          72.80066722268558,73.21121121121121,0
          72.8440366972477,73.1951951951952,0
          72.8440366972477,73.17917917917919,0
          72.8440366972477,73.16316316316316,0
          72.88740617180984,73.14714714714715,0
          72.88740617180984,73.13113113113113,0
          72.88740617180984,73.11511511511512,0
          72.93077564637198,73.0990990990991,0
          72.93077564637198,73.08308308308308,0
          72.93077564637198,73.06706706706707,0
          72.97414512093411,73.05105105105105,0
          72.97414512093411,73.03503503503504,0
          72.97414512093411,73.01901901901903,0
          73.01751459549625,73.003003003003,0
          73.01751459549625,72.98698698698699,0
          73.01751459549625,72.97097097097097,0
          73.06088407005839,72.95495495495496,0
          73.06088407005839,72.93893893893895,0
          73.06088407005839,72.92292292292292,0
          73.10425354462052,72.90690690690691,0
          73.10425354462052,72.89089089089089,0
          73.10425354462052,72.87487487487488,0
          73.14762301918265,72.85885885885887,0
          73.14762301918265,72.84284284284284,0
          73.14762301918265,72.82682682682683,0
          73.19099249374479,72.8108108108108,0
          73.19099249374479,72.7947947947948,0
          73.19099249374479,72.77877877877879,0
          73.23436196830693,72.76276276276276,0
          73.23436196830693,72.74674674674675,0
          73.23436196830693,72.73073073073073,0
          73.23436196830693,72.71471471471472,0
          73.23436196830693,72.6986986986987,0
          73.23436196830693,72.68268268268268,0
          73.23436196830693,72.66666666666667,0
          73.23436196830693,72.65065065065065,0
          73.23436196830693,72.63463463463464,0
          73.23436196830693,72.61861861861863,0
          73.23436196830693,72.6026026026026,0
          73.19099249374479,72.58658658658659,0
          73.19099249374479,72.57057057057057,0
          73.19099249374479,72.55455455455456,0
          73.19099249374479,72.53853853853855,0
          73.19099249374479,72.52252252252252,0
          73.23436196830693,72.50650650650651,0
          73.19099249374479,72.49049049049049,0
          73.19099249374479,72.47447447447448,0
          73.19099249374479,72.45845845845847,0
          73.14762301918265,72.44244244244244,0
          73.14762301918265,72.42642642642643,0
          73.14762301918265,72.4104104104104,0
          73.14762301918265,72.3943943943944,0
          73.10425354462052,72.37837837837839,0
          73.10425354462052,72.36236236236236,0
          73.10425354462052,72.34634634634635,0
          73.06088407005839,72.33033033033033,0
          73.06088407005839,72.31431431431432,0
          73.06088407005839,72.2982982982983,0
          73.06088407005839,72.28228228228228,0
          73.01751459549625,72.26626626626627,0
          73.01751459549625,72.25025025025025,0
          73.01751459549625,72.23423423423424,0
          72.97414512093411,72.21821821821823,0
          72.97414512093411,72.2022022022022,0
          72.97414512093411,72.18618618618619,0
          72.97414512093411,72.17017017017017,0
          72.93077564637198,72.15415415415416,0
          72.93077564637198,72.13813813813815,0
          72.93077564637198,72.12212212212212,0
          72.93077564637198,72.10610610610611,0
          72.88740617180984,72.09009009009009,0
          72.88740617180984,72.07407407407408,0
          72.88740617180984,72.05805805805807,0
          72.8440366972477,72.04204204204204,0
          72.8440366972477,72.02602602602603,0
          72.8440366972477,72.01001001001,0
          72.8440366972477,71.993993993994,0
          72.80066722268558,71.97797797797799,0
          72.80066722268558,71.96196196196196,0
          72.80066722268558,71.94594594594595,0
          72.75729774812343,71.92992992992993,0
          72.75729774812343,71.91391391391392,0
          72.75729774812343,71.8978978978979,0
          72.75729774812343,71.88188188188188,0
          72.7139282735613,71.86586586586587,0
          72.7139282735613,71.84984984984985,0
          72.7139282735613,71.83383383383384,0
          72.67055879899917,71.81781781781783,0
          72.67055879899917,71.8018018018018,0
          72.67055879899917,71.78578578578579,0
          72.62718932443704,71.76976976976977,0
          72.62718932443704,71.75375375375376,0
          72.5838198498749,71.73773773773775,0
          72.5838198498749,71.72172172172172,0
          72.5838198498749,71.70570570570571,0
          72.54045037531276,71.68968968968969,0
          72.54045037531276,71.67367367367368,0
          72.54045037531276,71.65765765765765,0
          72.49708090075063,71.64164164164164,0
          72.49708090075063,71.62562562562563,0
          72.49708090075063,71.6096096096096,0
          72.45371142618849,71.5935935935936,0
          72.45371142618849,71.57757757757757,0
          72.41034195162635,71.56156156156156,0
          72.41034195162635,71.54554554554555,0
          72.41034195162635,71.52952952952953,0
          72.36697247706422,71.51351351351352,0
          72.36697247706422,71.49749749749749,0
          72.36697247706422,71.48148148148148,0
          72.3236030025021,71.46546546546547,0
          72.3236030025021,71.44944944944945,0
          72.3236030025021,71.43343343343344,0
          72.28023352793994,71.41741741741741,0
          72.28023352793994,71.4014014014014,0
          72.28023352793994,71.38538538538539,0
          72.28023352793994,71.36936936936937,0
          72.28023352793994,71.35335335335336,0
          72.28023352793994,71.33733733733733,0
          72.28023352793994,71.32132132132132,0
        </coordinates>
      </LineString>
    </Placemark>
  </Document>
</kml>