{"type":"FeatureCollection","features":[{"type":"Feature","properties":{},"geometry":{"coordinates":[[[58.67769134112302,70.457404325477],[58.39576040711347,70.36287568630422],[58.33309433494131,70.22463759410888],[58.82202488124116,69.94255145712609],[59.103929445194666,69.84261073461039],[59.59728557068016,69.70402338043112],[59.99811954221457,69.64894821280973],[61.6030995629788,68.59412436931612],[61.90540000006993,69.7403914016769],[61.200194123855,69.86214422377788],[60.83748705639701,69.85520568155229],[60.434497322155494,69.94522808119447],[59.84006035225593,70.18568023572416],[59.07435071081207,70.48404222104998],[58.67769134112302,70.457404325477]]],"type":"Polygon"}},{"type":"Feature","properties":{},"geometry":{"coordinates":[[[48.637601642214975,68.67659656834616],[49.77322719476916,68.84043700902672],[50.09991001961086,69.0755232867144],[50.28186128964751,69.19265551678717],[49.907139516000115,69.33104100376536],[49.63141150009727,69.41274096799009],[49.308686792748745,69.51464709395566],[48.768069299868785,69.48355390060547],[48.332359783611395,69.32175212217058],[48.211336629494525,69.08686159192766],[48.18713096936932,68.82610776110286],[48.30009402893393,68.72679509893263],[48.637601642214975,68.67659656834616]]],"type":"Polygon"}},{"type":"Feature","properties":{},"geometry":{"coordinates":[[[42.103608257311095,66.50584527552061],[44.76208753313165,65.36594529733188],[46.784059198759564,67.72075860550606],[46.912582068507476,67.94346956593145],[46.21767371318387,68.51117059550634],[44.23787091342865,68.59711883045182],[43.39567189967448,68.71906582057889],[43.23308102189458,68.6359439188833],[44.03811027698211,68.30630459763591],[44.06211138407684,67.9391307483244],[43.57075646571664,67.19246135077029],[42.41154397096449,66.80741244799046],[42.103608257311095,66.50584527552061]]],"type":"Polygon"}},{"type":"Feature","properties":{},"geometry":{"coordinates":[[[33.82300153866359,69.31184129855666],[33.598727976969116,69.29902070226757],[34.48411579555059,69.24844872222224],[34.4305948126341,69.29919940639928],[34.374948621372795,69.31249905626743],[34.42161031574565,69.33276450501029],[34.29428291966565,69.37132421350711],[34.08630162700382,69.3940135848976],[34.00743943566374,69.38572644365956],[33.91435762365373,69.32133061807573],[33.82300153866359,69.31184129855666]]],"type":"Polygon"}},{"type":"Feature","properties":{},"geometry":{"coordinates":[[[59.61608201299498,70.53148353575185],[59.70925050484192,70.37735838959443],[60.531474314046505,70.13208244318034],[62.657525188006446,69.93194402306614],[64.98018039648434,69.51816284335072],[65.2158800796891,69.81386189863017],[64.01156952475213,70.40922904298495],[62.38681836407997,70.7993519545019],[60.990950593028685,70.74270172408842],[59.61608201299498,70.53148353575185]]],"type":"Polygon"}},{"type":"Feature","properties":{},"geometry":{"coordinates":[[[64.8884508900309,69.36148791493233],[63.543470754903666,68.94831556161813],[66.63070848832359,68.27261836851238],[68.59729008393268,68.97096853136003],[68.55853406539228,69.54993149747924],[67.2065785723781,70.21794303616824],[66.42265552268148,70.24928640184092],[66.46123820682052,69.9498196521821],[65.97562353572363,69.68292750689568],[65.63818998153323,69.28127730357488],[64.8884508900309,69.36148791493233]]],"type":"Polygon"}},{"type":"Feature","properties":{},"geometry":{"coordinates":[[[69.25749739908372,72.83415089395135],[70.62315449285262,72.75030427648639],[72.88340879979387,72.69964626535847],[71.84414061576328,72.96079844053006],[71.63800477760932,73.25280729025388],[71.2515000810688,73.44722059183727],[70.7361604856826,73.49852994204673],[70.05763001842396,73.43498124071698],[69.79137122747451,73.31456921010522],[69.46498948372943,73.0160807801816],[69.25749739908372,72.83415089395135]]],"type":"Polygon"}}]}