{"type":"FeatureCollection","features":[{"type":"Feature","properties":{},"geometry":{"coordinates":[[[42.21912536831769,66.50769699550409],[44.38282501612278,66.35525314461304],[43.92020583579753,67.49121382189904],[42.21912536831769,66.50769699550409]]],"type":"Polygon"}},{"type":"Feature","properties":{},"geometry":{"coordinates":[[[33.94033302954915,69.30896842470668],[34.39489623136174,69.26130459858894],[34.4088097065823,69.33420540697009],[34.15328799557332,69.38777733441776],[34.06266868927793,69.38729705711683],[33.980135291703505,69.36761192808885],[33.94033302954915,69.30896842470668]]],"type":"Polygon"}},{"type":"Feature","properties":{},"geometry":{"coordinates":[[[43.26223137376843,68.6545385585261],[43.37627069224874,66.11679859495027],[44.22464256556279,68.30229459004241],[43.26223137376843,68.6545385585261]]],"type":"Polygon"}},{"type":"Feature","properties":{},"geometry":{"coordinates":[[[60.28515716657441,69.96383420304718],[58.753063255416464,69.97948568875401],[60.41953368478897,69.40023269805394],[61.213962490684736,69.80729550851157],[60.28515716657441,69.96383420304718]]],"type":"Polygon"}},{"type":"Feature","properties":{},"geometry":{"coordinates":[[[69.051540708526,72.68300109386956],[68.33960695025692,71.55911117322205],[71.58335880956918,71.47075537354061],[72.24790532154421,71.62426973056415],[72.83879322561796,72.23886572817278],[72.90855480478501,72.65704791817666],[71.74046643692068,73.17565018407899],[71.10272491350054,73.49125075801916],[70.41540359328675,73.46959297988329],[70.0144540823747,73.37918026542786],[69.051540708526,72.68300109386956]]],"type":"Polygon"}},{"type":"Feature","properties":{},"geometry":{"coordinates":[[[71.42822620403845,71.26316232492971],[72.19072177578656,71.33900553169883],[72.70528034362005,71.86376068422766],[73.19506583474907,72.50980126505746],[72.21085841564985,72.57153435932847],[71.42822620403845,71.26316232492971]]],"type":"Polygon"}},{"type":"Feature","properties":{},"geometry":{"coordinates":[[[58.7400334142055,69.95913101221294],[72.39257968576064,68.39466918429775],[69.43978121443749,76.94994232928292],[68.47562493621274,77.11141296686918],[67.07440380193313,77.05443851485688],[64.64970582507806,76.59808902284243],[60.69086865038838,76.36662844177914],[56.3230031542314,75.8310010522923],[54.21390556228587,75.10180443929687],[55.21128760862766,75.04098491633476],[53.251277726107446,73.69234629856538],[52.149986294167036,73.07440663877333],[51.01053040185829,72.39692264076973],[51.22235429148631,71.37932082543381],[52.85759702671001,70.71748836682056],[56.34446726691462,70.36771063141609],[58.7400334142055,69.95913101221294]]],"type":"Polygon"}},{"type":"Feature","properties":{},"geometry":{"coordinates":[[[69.48778385777436,76.92582429635434],[71.11952930113165,72.68254154027471],[73.20154772478026,72.75318671700862],[69.48778385777436,76.92582429635434]]],"type":"Polygon"}},{"type":"Feature","properties":{},"geometry":{"coordinates":[[[69.43423845783548,76.9446164925582],[69.36912703711249,76.83137166167037],[69.617747116635,76.88578177420976],[69.43423845783548,76.9446164925582]]],"type":"Polygon"}},{"type":"Feature","properties":{},"geometry":{"coordinates":[[[73.196600171603,72.75280870247582],[70.01854789719465,72.6442619369339],[73.18770851089849,72.51111219888622],[73.196600171603,72.75280870247582]]],"type":"Polygon"}},{"type":"Feature","properties":{},"geometry":{"coordinates":[[[43.375743161259834,68.66688593478011],[44.059220390961315,67.98812646692642],[44.817015368531884,67.3982428564988],[45.32947252140883,67.15693993627886],[46.004375799182384,67.1925504596465],[47.955776942295756,67.60193952019782],[49.010062452219955,67.79477947742939],[52.40470244870849,68.59667094430216],[54.5528951372568,69.00027929587716],[53.978056269549285,68.24560926933171],[55.72936481616202,68.5842671698885],[57.5394466635818,68.70571071248787],[58.80306952417385,68.96215758433985],[59.99274340734249,68.6822037587381],[61.32174700203919,68.79487764256228],[60.708249316964014,69.23966274002726],[59.30427292266697,69.92701448727078],[54.921010629728016,70.65965356565658],[52.44097666045272,70.39382262167433],[49.073967672135126,70.2515457092714],[45.16124412089374,70.12934069120408],[43.55325190362947,69.22865266637879],[43.375743161259834,68.66688593478011]]],"type":"Polygon"}},{"type":"Feature","properties":{},"geometry":{"coordinates":[[[43.26694091543507,68.65416693923032],[43.33955766498542,68.40480054850167],[43.48919781298895,68.71448892796121],[43.26694091543507,68.65416693923032]]],"type":"Polygon"}},{"type":"Feature","properties":{},"geometry":{"coordinates":[[[40.762271754845415,67.74272464515866],[37.235101317196154,66.99296762112724],[36.58282329144703,66.2818808687866],[38.456538433767264,65.8176909001339],[40.498260645604915,66.30501193274549],[41.63815664741264,66.90478715149703],[41.448622470729646,67.53961102931456],[40.762271754845415,67.74272464515866]]],"type":"Polygon"}}]}