{
  "type": "FeatureCollection",
  "features": [
    {
      "type": "Feature",
      "properties": {},
      "geometry": {
        "coordinates": [
          [
            [
              34.471989468589044,
              69.24956638437499
            ],
            [
              34.38763256241086,
              69.3390189787163
            ],
            [
              34.161053726578814,
              69.38173593983237
            ],
            [
              34.00826276185117,
              69.3705890173913
            ],
            [
              33.95036129609932,
              69.30922069367855
            ],
            [
              34.471989468589044,
              69.24956638437499
            ]
          ]
        ],
        "type": "Polygon"
      }
    },
    {
      "type": "Feature",
      "properties": {},
      "geometry": {
        "coordinates": [
          [
            [
              35.10444777759437,
              69.29995102972359
            ],
            [
              35.104447418633896,
              69.27011611311713
            ],
            [
              35.14661881344364,
              69.25705036178451
            ],
            [
              35.162433067868534,
              69.28503753299643
            ],
            [
              35.10444777759437,
              69.29995102972359
            ]
          ]
        ],
        "type": "Polygon"
      }
    },
    {
      "type": "Feature",
      "properties": {},
      "geometry": {
        "coordinates": [
          [
            [
              35.05173251229775,
              69.36692802526431
            ],
            [
              34.89885824293705,
              69.36692802526431
            ],
            [
              34.89885824293705,
              69.36135453389551
            ],
            [
              35.05173251229775,
              69.36135453389551
            ],
            [
              35.05173251229775,
              69.36692802526431
            ]
          ]
        ],
        "type": "Polygon"
      }
    },
    {
      "type": "Feature",
      "properties": {},
      "geometry": {
        "coordinates": [
          [
            [
              34.751255500106595,
              69.31299059491559
            ],
            [
              34.56148054503768,
              69.41517135170602
            ],
            [
              34.61946733686446,
              69.33904616691265
            ],
            [
              34.751255500106595,
              69.31299059491559
            ]
          ]
        ],
        "type": "Polygon"
      }
    },
    {
      "type": "Feature",
      "properties": {},
      "geometry": {
        "coordinates": [
          [
            [
              34.71962634092864,
              69.54267905686243
            ],
            [
              34.39279169608852,
              69.54267905686243
            ],
            [
              34.39279169608852,
              69.53530799033427
            ],
            [
              34.71962634092864,
              69.53530799033427
            ],
            [
              34.71962634092864,
              69.54267905686243
            ]
          ]
        ],
        "type": "Polygon"
      }
    },
    {
      "type": "Feature",
      "properties": {},
      "geometry": {
        "coordinates": [
          [
            [
              33.965798047184336,
              69.48548676563246
            ],
            [
              34.43496390832587,
              69.4928750049487
            ],
            [
              34.18720216143126,
              69.5224025068957
            ],
            [
              33.965798047184336,
              69.48548676563246
            ]
          ]
        ],
        "type": "Polygon"
      }
    },
    {
      "type": "Feature",
      "properties": {},
      "geometry": {
        "coordinates": [
          [
            [
              36.89166120285557,
              69.41764105764469
            ],
            [
              39.07465772315314,
              69.04698062734872
            ],
            [
              38.38286305122779,
              69.40142142836169
            ],
            [
              36.89166120285557,
              69.41764105764469
            ]
          ]
        ],
        "type": "Polygon"
      }
    },
    {
      "type": "Feature",
      "properties": {},
      "geometry": {
        "coordinates": [
          [
            [
              43.79423405111609,
              67.28103654608864
            ],
            [
              42.48751101041418,
              66.75282946686386
            ],
            [
              42.21079244608654,
              66.49052807363907
            ],
            [
              44.009456158528906,
              66.08249060598769
            ],
            [
              44.93184856914803,
              66.90405737826322
            ],
            [
              43.79423405111609,
              67.28103654608864
            ]
          ]
        ],
        "type": "Polygon"
      }
    },
    {
      "type": "Feature",
      "properties": {},
      "geometry": {
        "coordinates": [
          [
            [
              60.278146595220534,
              69.56149832972253
            ],
            [
              60.9776626596655,
              69.76570384031487
            ],
            [
              60.41804980810923,
              69.90075343008124
            ],
            [
              59.83045631397525,
              69.74634020475847
            ],
            [
              60.278146595220534,
              69.56149832972253
            ]
          ]
        ],
        "type": "Polygon"
      }
    },
    {
      "type": "Feature",
      "properties": {},
      "geometry": {
        "coordinates": [
          [
            [
              57.647605023604854,
              73.95313730336915
            ],
            [
              57.868079397757526,
              73.41640591253068
            ],
            [
              60.624009074660336,
              74.51223735957765
            ],
            [
              62.13058396470075,
              75.62880470095968
            ],
            [
              57.647605023604854,
              73.95313730336915
            ]
          ]
        ],
        "type": "Polygon"
      }
    },
    {
      "type": "Feature",
      "properties": {},
      "geometry": {
        "coordinates": [
          [
            [
              61.02821209393943,
              74.88075797227557
            ],
            [
              62.79200708715774,
              74.88075797227557
            ],
            [
              64.84976791257935,
              75.5281367991787
            ],
            [
              62.020346777624894,
              75.81908870847587
            ],
            [
              61.02821209393943,
              74.88075797227557
            ]
          ]
        ],
        "type": "Polygon"
      }
    },
    {
      "type": "Feature",
      "properties": {},
      "geometry": {
        "coordinates": [
          [
            [
              63.96787041596963,
              75.45449064335199
            ],
            [
              65.58468249308689,
              75.39901550340767
            ],
            [
              68.8183066473193,
              75.9713187520635
            ],
            [
              67.5689518604569,
              76.46153932775817
            ],
            [
              63.526921667665306,
              75.8460699248026
            ],
            [
              63.96787041596963,
              75.45449064335199
            ]
          ]
        ],
        "type": "Polygon"
      }
    },
    {
      "type": "Feature",
      "properties": {},
      "geometry": {
        "coordinates": [
          [
            [
              67.64244331850739,
              75.87300085207247
            ],
            [
              68.92854383439615,
              75.71972590913873
            ],
            [
              69.51647549880155,
              76.25353688767154
            ],
            [
              67.64244331850739,
              75.87300085207247
            ]
          ]
        ],
        "type": "Polygon"
      }
    },
    {
      "type": "Feature",
      "properties": {},
      "geometry": {
        "coordinates": [
          [
            [
              68.78156091829402,
              75.81908870847587
            ],
            [
              66.61356290579664,
              74.99534380856753
            ],
            [
              64.33532770622341,
              73.5313818887416
            ],
            [
              63.08597291936101,
              72.6114390603789
            ],
            [
              65.10698801575623,
              72.90550114263624
            ],
            [
              70.39837299541125,
              75.18443724863761
            ],
            [
              73.15430267231412,
              75.23134544690194
            ],
            [
              75.7999951621411,
              76.38390279703466
            ],
            [
              67.05451165410201,
              76.624014757227
            ],
            [
              68.78156091829402,
              75.81908870847587
            ]
          ]
        ],
        "type": "Polygon"
      }
    },
    {
      "type": "Feature",
      "properties": {},
      "geometry": {
        "coordinates": [
          [
            [
              73.00731975621306,
              75.30609667149943
            ],
            [
              69.66345841490369,
              73.74873283322836
            ],
            [
              70.0309157051575,
              73.56260423023025
            ],
            [
              71.023050388842,
              73.66626350940308
            ],
            [
              72.93382829816139,
              73.04536059368988
            ],
            [
              75.2120634977357,
              73.16283517038545
            ],
            [
              81.05463441276981,
              73.48966238906968
            ],
            [
              82.48771784475963,
              76.29712764979382
            ],
            [
              75.43253787188732,
              76.38390279703466
            ],
            [
              73.00731975621306,
              75.30609667149943
            ]
          ]
        ],
        "type": "Polygon"
      }
    },
    {
      "type": "Feature",
      "properties": {},
      "geometry": {
        "coordinates": [
          [
            [
              69.99416997613224,
              73.36388653891481
            ],
            [
              69.29600112464996,
              72.79715592817107
            ],
            [
              72.45613382083178,
              72.71000055325524
            ],
            [
              71.023050388842,
              73.45830535509657
            ],
            [
              69.99416997613224,
              73.36388653891481
            ]
          ]
        ],
        "type": "Polygon"
      }
    },
    {
      "type": "Feature",
      "properties": {},
      "geometry": {
        "coordinates": [
          [
            [
              72.86032670842789,
              73.0988577108383
            ],
            [
              73.77896993406179,
              72.45703943169462
            ],
            [
              75.24879909507692,
              73.23718106805856
            ],
            [
              72.86032670842789,
              73.0988577108383
            ]
          ]
        ],
        "type": "Polygon"
      }
    },
    {
      "type": "Feature",
      "properties": {},
      "geometry": {
        "coordinates": [
          [
            [
              73.11754681160474,
              71.46738920903664
            ],
            [
              78.88662626858945,
              70.92255947518234
            ],
            [
              75.10181617897581,
              73.30065118040932
            ],
            [
              73.74222420503654,
              72.62241847739219
            ],
            [
              73.11754681160474,
              71.46738920903664
            ]
          ]
        ],
        "type": "Polygon"
      }
    },
    {
      "type": "Feature",
      "properties": {},
      "geometry": {
        "coordinates": [
          [
            [
              73.4482583728333,
              72.67720834565085
            ],
            [
              72.49286941817414,
              71.40890324110188
            ],
            [
              73.96269857918924,
              70.15130891266676
            ],
            [
              76.31442523681301,
              71.50239553535684
            ],
            [
              73.4482583728333,
              72.67720834565085
            ]
          ]
        ],
        "type": "Polygon"
      }
    },
    {
      "type": "Feature",
      "properties": {},
      "geometry": {
        "coordinates": [
          [
            [
              66.75636889491025,
              71.24547374061626
            ],
            [
              68.85087544935607,
              71.58508646809318
            ],
            [
              68.29968951397592,
              71.73539279704661
            ],
            [
              66.75636889491025,
              71.24547374061626
            ]
          ]
        ],
        "type": "Polygon"
      }
    },
    {
      "type": "Feature",
      "properties": {},
      "geometry": {
        "coordinates": [
          [
            [
              68.18945232690012,
              71.70081223160514
            ],
            [
              69.29182419766147,
              71.71234610680796
            ],
            [
              68.92436690740766,
              72.6783935446478
            ],
            [
              68.18945232690012,
              71.70081223160514
            ]
          ]
        ],
        "type": "Polygon"
      }
    },
    {
      "type": "Feature",
      "properties": {},
      "geometry": {
        "coordinates": [
          [
            [
              66.68287578166405,
              71.26908781345486
            ],
            [
              66.4256556784861,
              69.698626367072
            ],
            [
              67.19731598801891,
              69.4550022659086
            ],
            [
              68.29968785878026,
              71.07936886090803
            ],
            [
              66.68287578166405,
              71.26908781345486
            ]
          ]
        ],
        "type": "Polygon"
      }
    },
    {
      "type": "Feature",
      "properties": {},
      "geometry": {
        "coordinates": [
          [
            [
              67.08707880094309,
              69.50652296372897
            ],
            [
              68.8141280651362,
              68.2216775765979
            ],
            [
              69.54904264564374,
              69.49365439187892
            ],
            [
              67.01358734289258,
              69.90163517743679
            ],
            [
              67.08707880094309,
              69.50652296372897
            ]
          ]
        ],
        "type": "Polygon"
      }
    },
    {
      "type": "Feature",
      "properties": {},
      "geometry": {
        "coordinates": [
          [
            [
              59.66445178475766,
              68.30333076106757
            ],
            [
              60.43611209429051,
              68.20803979441575
            ],
            [
              61.575229694077166,
              69.01204715181291
            ],
            [
              60.10540053306198,
              69.60919322944312
            ],
            [
              59.66445178475766,
              68.30333076106757
            ]
          ]
        ],
        "type": "Polygon"
      }
    },
    {
      "type": "Feature",
      "properties": {},
      "geometry": {
        "coordinates": [
          [
            [
              71.09235071058328,
              66.24639227364685
            ],
            [
              74.65668642604521,
              66.06814945897261
            ],
            [
              74.73017788409578,
              68.11235483782886
            ],
            [
              71.09235071058328,
              66.24639227364685
            ]
          ]
        ],
        "type": "Polygon"
      }
    },
    {
      "type": "Feature",
      "properties": {},
      "geometry": {
        "coordinates": [
          [
            [
              77.92705630930294,
              67.8921349149104
            ],
            [
              78.51498797370937,
              68.74724401034086
            ],
            [
              77.08190454171955,
              69.06463315393327
            ],
            [
              77.92705630930294,
              67.8921349149104
            ]
          ]
        ],
        "type": "Polygon"
      }
    },
    {
      "type": "Feature",
      "properties": {},
      "geometry": {
        "coordinates": [
          [
            [
              77.04515881269424,
              69.09087699981555
            ],
            [
              75.68556683875497,
              69.67311592918927
            ],
            [
              73.92177184553765,
              69.11708941912227
            ],
            [
              77.04515881269424,
              69.09087699981555
            ]
          ]
        ],
        "type": "Polygon"
      }
    },
    {
      "type": "Feature",
      "properties": {},
      "geometry": {
        "coordinates": [
          [
            [
              71.14375485827892,
              76.45283286030403
            ],
            [
              82.55686574680738,
              76.45283286030403
            ],
            [
              82.55686574680738,
              77.30386447725243
            ],
            [
              71.14375485827892,
              77.30386447725243
            ],
            [
              71.14375485827892,
              76.45283286030403
            ]
          ]
        ],
        "type": "Polygon"
      }
    },
    {
      "type": "Feature",
      "properties": {},
      "geometry": {
        "coordinates": [
          [
            [
              81.41555465795426,
              73.50418458931543
            ],
            [
              88.58951007359997,
              73.50418458931543
            ],
            [
              88.58951007359997,
              77.26798072095556
            ],
            [
              81.41555465795426,
              77.26798072095556
            ],
            [
              81.41555465795426,
              73.50418458931543
            ]
          ]
        ],
        "type": "Polygon"
      }
    }
  ]
}