<?xml version="1.0" encoding="UTF-8"?>
<kml xmlns="http://www.opengis.net/kml/2.2">
  <Document>
    <name>Морской маршрут Мурманск-Архангельск</name>
    <description>Оптимальный маршрут через Баренцево и Белое моря</description>
    <Style id="routeStyle">
      <LineStyle>
        <color>ff0066ff</color>
        <width>4</width>
      </LineStyle>
    </Style>
    <Placemark>
      <name>Маршрут корабля</name>
      <styleUrl>#routeStyle</styleUrl>
      <LineString>
        <extrude>0</extrude>
        <tessellate>1</tessellate>
        <altitudeMode>clampToGround</altitudeMode>
        <coordinates>
          33.05,69.04,0
          40.49,64.55,0
        </coordinates>
      </LineString>
    </Placemark>
  </Document>
</kml>